X,Y,OBJECTID,FOLIO,ID,NAME,GSRATING,CAMPUS,ADDRESS,UNIT,CITY,ZIPCODE,PHONE,TYPE,GRADES,CAPACITY,ENROLLMNT,REGION,LAT,LON,POINT_X,POINT_Y,CREATEDBY,CREATEDDATE,MODIFIEDBY,MODIFIEDDATE
-8921085.47,2987969.181,362,6.2222E+11,9071,Academy for Advanced Academics – North,,Biscayne Bay Campus,3000 NE 151ST ST,Rm AC1-395,North Miami,33181,305-919-4450,SPC,12-Nov,0,0, ,25.91024,-80.13947,939028.4542,573996.8816,,1970/01/01 00:00:00+00,ABREUI,2017/01/24 09:16:44+00
-8947529.135,2969148.459,363,3.04007E+12,9071,Academy for Advanced Academics – South,,Modesto Maidique,11200 SW 8TH ST , VH 130,Miami-Dade,33199,305-348-7041,SPC,12-Nov,0,0, ,25.75807,-80.37702,861204.7206,518246.4615,,1970/01/01 00:00:00+00,ABREUI,2017/01/10 14:16:17+00
-8928361.064,2970691.177,183,1.0202E+11,3191,Ada Merritt K-8 Center,10, ,660 SW 3RD ST, ,Miami,33130,305-326-0791,E,K-8,707,725,C,25.77055,-80.20483,917851.1557,523087.6148,,1970/01/01 00:00:00+00,ABREUI,2016/12/13 11:49:32+00
-8931294.827,2977533.804,33,3.03115E+12,4071,Agenoria S. Paschal/ Olinda Elementary School,3, ,5536 NW 21ST AVE, ,Miami-Dade,33142,305-633-0308,E,PK-5,560,389,C,25.82589,-80.23118,909060.3123,543151.0511,,1970/01/01 00:00:00+00,ABREUI,2016/12/13 11:08:20+00
-8949939.148,2939111.393,189,3.06935E+12,41,Air Base K-8 Center for International Education,10, ,12829 SW 272ND ST, ,Miami-Dade,33032,305-258-3676,E,PK-6,852,1010,S,25.51481,-80.39867,854480.6673,429798.8117,,1970/01/01 00:00:00+00,ABREUI,2016/12/13 11:09:55+00
-8921927.979,2988740.156,265,6.2216E+11,7048,Alonzo and Tracy Mourning Senior High,5,Biscayne Bay,2601 NE 151ST ST, ,North Miami,33160,305-919-2000,S,12-Sep,1445,1557,N,25.91647,-80.14704,936525.8235,576244.878,,1970/01/01 00:00:00+00,ABREUI,2016/12/13 11:54:54+00
-8935421.172,2983838.431,434,4.2132E+11,1521,Amelia Earhart Elementary,5, ,5987 E 7TH AVE, ,Hialeah,33013,305-688-9619,E,PK-5,518,442,N,25.87686,-80.26825,896763.7465,561606.5793,ABREUI,2018/05/31 09:31:58+00,T0140179,2018/09/27 09:13:05+00
-8939903.012,2991605.111,260,3.02012E+12,7011,American Senior High,3, ,18350 NW 67TH AVE, ,Miami-Dade,33015,305-557-3770,S,12-Sep,2182,2193,N,25.93962,-80.30851,883405.3158,584344.9745,,1970/01/01 00:00:00+00,ABREUI,2016/12/13 11:58:58+00
-8939797.322,2991579.061,261,3.02012E+12,7012,American Senior High Adult Education,, ,18350 NW 67TH AVE, ,Miami-Dade,33015,305-557-3770,O, ,0,0, ,25.93941,-80.30756,883717.7351,584270.1355,,1970/01/01 00:00:00+00,ABREUI,2016/12/13 11:13:36+00
-8927734.584,2994899.699,259,3.41136E+12,6023,Andover Middle,3, ,121 NE 207TH ST, ,Miami Gardens,33179,305-654-2727,M,8-Jun,1239,723,N,25.96623,-80.19921,919269.5434,594222.1188,,1970/01/01 00:00:00+00,ABREUI,2016/12/19 09:10:40+00
-8926919.843,2973007.041,326,1.31361E+11,9606,Anna Brenner Meyers Telecommunication Complex,, ,172 NE 15 STREET, ,Miami,33132,305-995-1717,A, ,0,0, ,25.78929,-80.19188,922070.22,529922.4303,,1970/01/01 00:00:00+00,ABREUI,2016/12/19 09:19:00+00
-8926082.663,2986821.161,242,6.2219E+11,341,Arch Creek Elementary,4, ,702 NE 137TH ST, ,North Miami,33161,305-892-4000,E,KG-5,642,574,N,25.90097,-80.18436,924292.9495,570530.7731,,1970/01/01 00:00:00+00,ABREUI,2017/01/09 10:29:34+00
-8929383.874,2980414.179,196,3.03111E+12,101,Arcola Lake Elementary,8, ,1037 NW 81ST ST, ,Miami-Dade,33150,305-836-2820,E,PK-5,798,491,C,25.84918,-80.21403,914656.6113,551648.9722,,1970/01/01 00:00:00+00,ABREUI,2016/12/13 11:20:05+00
-8947859.289,2945416.225,90,3.06018E+12,7351,Arthur & Polly Mays Conservatory of The Arts,5, ,11700 SW 216TH ST, ,Miami-Dade,33170,305-233-2300,S,12-Jun,955,627,S,25.56591,-80.37998,860555.8819,448400.1977,,1970/01/01 00:00:00+00,ABREUI,2016/12/13 11:24:55+00
-8950216.8,2957838.907,258,3.05911E+12,6021,Arvida Middle,8, ,10900 SW 127TH AVE, ,Miami-Dade,33186,305-385-7144,M,8-Jun,1227,1416,S,25.66654,-80.40116,853409.1253,484940.6183,,1970/01/01 00:00:00+00,ABREUI,2016/12/13 11:27:08+00
-8933178.092,2970243.793,198,1.4104E+11,121,Auburndale Elementary,5, ,3255 SW 6TH ST, ,Miami,33135,305-445-3587,E,PK-5,1091,831,C,25.76693,-80.2481,903617.6258,521688.5495,,1970/01/01 00:00:00+00,,1970/01/01 00:00:00+00
-8933460.899,2970276.602,199,1.4104E+11,121,Auburndale Elementary PLC-H1,5, ,3255 SW 6TH ST, ,Miami,33135,305-445-3587,PLC,PK-5,0,0,C,25.7672,-80.25064,902780.9651,521780.26,,1970/01/01 00:00:00+00,,1970/01/01 00:00:00+00
-8922196.641,2995437.367,361,3.01234E+12,231,Aventura Waterways K-8 Center,8, ,21101 NE 26 AVE, ,Miami-Dade,33180,305-933-5200,E,K-8,2099,2042,N,25.97057,-80.14945,935604.8051,595903.5916,,1970/01/01 00:00:00+00,ABREUI,2016/12/13 12:19:53+00
-8926413.23,2994093.205,360,3.01231E+12,231,Aventura Waterways K-8 Center (Annex),8, ,750 IVES DAIRY RD, ,Miami-Dade,33179,305-933-5200,E,K-8,2099,2042,N,25.9595,-80.1872,923184.2783,591878.5922,,1970/01/01 00:00:00+00,,1970/01/01 00:00:00+00
-8957447.645,2936549.858,234,3.07906E+12,161,Avocado Elementary,6, ,16969 SW 294TH ST, ,Miami-Dade,33030,305-247-4942,E,KG-3,869,419,S,25.49404,-80.46612,832266.0965,422155.8341,,1970/01/01 00:00:00+00,ABREUI,2016/12/13 11:31:10+00
-8942732.507,2967060.836,235,3.04015E+12,201,Banyan Elementary,9, ,3060 SW 85TH AVE, ,Miami-Dade,33155,305-221-4011,E,PK-5,540,333,C,25.74118,-80.33393,875417.6875,512176.5313,,1970/01/01 00:00:00+00,ABREUI,2016/12/13 12:25:47+00
-8944049.263,2986852.419,100,3.22021E+12,7751,Barbara Goleman Senior High,6, ,14100 NW 89TH AVE, ,Miami Lakes,33018,305-362-0676,S,12-Sep,2911,1664,N,25.90122,-80.34576,871234.625,570325.2771,,1970/01/01 00:00:00+00,ABREUI,2016/12/13 11:33:52+00
-8934730.448,2992479.471,419,3.42105E+12,3781,Barbara Hawkins Elementary,9, ,19010 NW 37TH AVE, ,Miami Gardens,33056,305-624-2615,E,PK-5,492,280,N,25.94668,-80.26205,898661.1248,586995.4999,,1970/01/01 00:00:00+00,T0140179,2018/09/27 09:21:46+00
-8945169.19,2948129.102,238,3.06005E+12,261,Bel-Aire Elementary,6, ,10205 SW 194TH ST, ,Cutler Bay,33157,305-233-5401,E,PK-5,750,385,S,25.58789,-80.35582,868483.535,456427.4863,,1970/01/01 00:00:00+00,ABREUI,2017/01/09 09:55:29+00
-8942489.836,2983511.87,354,4.2034E+11,5021,Ben Sheppard Elementary,6, ,5700 W 24TH AVE, ,Hialeah,33016,305-556-2204,E,PK-5,1334,942,N,25.87422,-80.33175,875889.7431,560535.9029,,1970/01/01 00:00:00+00,ABREUI,2017/01/10 13:50:05+00
-8942387.059,2983459.567,291,4.2034E+11,5021,Ben Sheppard Elementary PLC-V,6, ,5601 W 24TH AVE, ,Hialeah,33016,305-818-7984,PLC,PK-KG,0,0,N,25.8738,-80.33084,876194.1066,560383.7948,,1970/01/01 00:00:00+00,ABREUI,2016/12/13 11:42:47+00
-8930062.128,2986090.649,155,6.2126E+11,2041,Benjamin Franklin K-8 Center,2, ,13100 NW 12TH AVE, ,North Miami,33168,305-681-3547,E,PK-8,632,558,C,25.89506,-80.22012,912553.6883,568313.6249,,1970/01/01 00:00:00+00,,1970/01/01 00:00:00+00
-8952392.492,2964607.957,239,3.04922E+12,271,Bent Tree Elementary,9, ,4861 SW 140TH AVE, ,Miami-Dade,33175,305-221-0461,E,PK-5,641,510,S,25.72133,-80.42071,846884.174,504827.273,,1970/01/01 00:00:00+00,ABREUI,2017/01/09 09:58:52+00
-8945589.968,2953288.107,229,3.0502E+12,7008,Biotech@Richmond Heights 9-12 High School,,Richmond Heights Middle,15015 SW 103RD AVE, ,Miami-Dade,33176,786-573-5353,S,9,204,270,S,25.62968,-80.3596,867164.2902,471610.609,,1970/01/01 00:00:00+00,ABREUI,2016/12/13 12:33:40+00
-8919643.958,2981963.971,241,2.3202E+11,321,Biscayne Elementary,6, ,800 77TH ST, ,Miami Beach,33141,305-868-7727,E,PK-5,822,677,N,25.86171,-80.12652,943402.6094,556384.4277,,1970/01/01 00:00:00+00,ABREUI,2017/01/09 10:23:39+00
-8928802.76,2988282.806,243,3.02124E+12,361,Biscayne Gardens Elementary,6, ,560 NW 151ST ST, ,Miami-Dade,33169,305-681-5721,E,PK-5,699,547,N,25.91278,-80.2088,916234.1432,574774.4194,,1970/01/01 00:00:00+00,ABREUI,2016/12/13 12:39:25+00
-8943877.701,2964217.806,245,3.04021E+12,441,Blue Lakes K-8 Center,8, ,9250 SW 52ND TER, ,Miami-Dade,33165,305-271-7411,E,PK-5,625,435,S,25.71817,-80.34423,872072.8125,503797.4375,,1970/01/01 00:00:00+00,ABREUI,2016/12/13 12:42:41+00
-8942091.958,2988854.367,193,3.22015E+12,91,Bob Graham Education Center,9, ,15901 NW 79TH AVE, ,Miami Lakes,33016,305-557-3303,E,PK-8,1962,1734,N,25.9174,-80.32818,876984.6246,576234.0001,,1970/01/01 00:00:00+00,,1970/01/01 00:00:00+00
-8943848.069,2987162.164,194,3.22021E+12,91,Bob Graham Education Center PLC-H,9, ,8875 NW 143RD ST, ,Miami Lakes,33018,305-231-8778,PLC,PK-1,0,0,N,25.90372,-80.34396,871824.2193,571237.9832,,1970/01/01 00:00:00+00,,1970/01/01 00:00:00+00
-8928392.643,2972662.834,102,1.31361E+11,7791,Booker T. Washington Senior High,2, ,1200 NW 6TH AVE, ,Miami,33136,305-324-8900,S,12-Sep,2089,977,C,25.7865,-80.20512,917722.8168,528883.9963,,1970/01/01 00:00:00+00,ABREUI,2016/12/13 12:51:41+00
-8933693.106,2992691.222,424,3.42104E+12,461,Brentwood Elementary,6, ,3101 NW 191ST ST, ,Miami Gardens,33056,305-624-2657,E,PK-5,874,547,N,25.94839,-80.25273,901719.8121,587634.563,,1970/01/01 00:00:00+00,T0140179,2018/09/27 09:25:34+00
-8933693.106,2992691.222,373,3.42104E+12,461,Brentwood Elementary PLC-D1,, ,3101 NW 191ST ST, ,Miami Gardens,33056,305-624-2657,PLC,PK-KG,0,0,N,25.94839,-80.25273,901719.812,587634.563,,1970/01/01 00:00:00+00,,1970/01/01 00:00:00+00
-8933798.275,2980464.635,375,3.03109E+12,521,Broadmoor Elementary,4, ,3401 NW 83RD ST, ,Miami-Dade,33147,305-691-0861,E,PK-5,708,428,C,25.84959,-80.25367,901613.6873,551721.1873,,1970/01/01 00:00:00+00,,1970/01/01 00:00:00+00
-8931780.321,2976749.685,218,3.03122E+12,6031,Brownsville Middle,1, ,4899 NW 24TH AVE, ,Miami-Dade,33142,305-633-1481,M,8-Jun,1341,558,C,25.81955,-80.23555,907639.0625,540838.1252,,1970/01/01 00:00:00+00,ABREUI,2016/12/13 13:13:29+00
-8947070.761,2961764.765,310,3.04031E+12,9732,Brucie Ball Educational Center,2, ,11001 SW 76TH ST, ,Miami-Dade,33173,305-514-5100,SPC,PK-12,0,314,AC,25.69832,-80.3729,862663.159,496535.2413,,1970/01/01 00:00:00+00,ABREUI,2016/12/13 13:13:57+00
-8932095.025,2989226.482,377,3.42115E+12,641,Bunche Park Elementary,5, ,16001 BUNCHE PARK SCHOOL DR, ,Miami Gardens,33054,305-621-1469,E,PK-5,771,339,N,25.9204,-80.23837,906496.4383,577488.1869,,1970/01/01 00:00:00+00,,1970/01/01 00:00:00+00
-8931213.377,2982466.336,418,3.03103E+12,8121,C.O.P.E. Center North,, ,9950 NW 19TH AVE, ,Miami-Dade,33147,305-836-3300,ALT,12-Aug,363,49,C,25.86577,-80.23046,909216.1249,557646.6246,,1970/01/01 00:00:00+00,T0140179,2018/09/27 09:31:21+00
-8951451.03,2959382.179,380,3.05902E+12,671,Calusa Elementary,10, ,9580 W Calusa Club Dr, ,Miami-Dade,33186,305-385-0589,E,PK-5,792,838,S,25.67903,-80.41225,849736.9804,489465.5184,,1970/01/01 00:00:00+00,ABREUI,2017/01/05 13:59:16+00
-8955194.672,2935000.976,378,3.07908E+12,651,Campbell Drive K-8 Center,3, ,15790 SW 307TH ST, ,Miami-Dade,33033,305-245-0270,E,PK-8,870,887,S,25.48148,-80.44588,838960.9379,417618.4059,,1970/01/01 00:00:00+00,,1970/01/01 00:00:00+00
-8948558.691,2947210.276,379,3.06912E+12,661,Caribbean K-8 Center,4, ,11990 SW 200TH ST, ,Miami-Dade,33177,305-233-7131,E,PK-5,878,606,S,25.58045,-80.38627,858460.2499,453674.1544,,1970/01/01 00:00:00+00,,1970/01/01 00:00:00+00
-8935789.49,2990829.196,381,3.42108E+12,681,Carol City Elementary,6, ,4375 NW 173RD DR, ,Miami Gardens,33055,305-621-0509,E,PK-5,806,381,N,25.93335,-80.27156,895561.7817,582132.5209,,1970/01/01 00:00:00+00,ABREUI,2016/12/13 13:20:59+00
-8934771.201,2992306.083,220,3.42104E+12,6051,Carol City Middle,3, ,3737 NW 188TH ST, ,Miami Gardens,33055,305-624-2652,M,8-Jun,1045,419,N,25.94528,-80.26241,898543.6878,586485.7496,,1970/01/01 00:00:00+00,,1970/01/01 00:00:00+00
-8931658.073,2985516.877,425,3.02127E+12,5901,Carrie P. Meek/Westview K-8 Center,2, ,2101 NW 127TH ST, ,Miami-Dade,33167,305-688-9641,E,PK-8,740,622,C,25.89043,-80.23445,907850.2149,566600.5014,,1970/01/01 00:00:00+00,T0140179,2018/09/27 09:39:37+00
-8931340.251,2985556.382,426,3.02127E+12,5901,Carrie P. Meek/Westview K-8 Center Annex,2,Former Westview MS,1901 NW 127TH ST, ,Miami-Dade,33167,305-688-9641,E,PK-8,740,622,C,25.89075,-80.23159,908788.1976,566722.0312,,1970/01/01 00:00:00+00,T0140179,2018/09/27 09:40:46+00
-8955151.969,2934598.596,333,1.07908E+12,7021,Center For International Education: A Cambridge A S,9, ,900 NE 23RD AVE, ,Homestead,33033,305-248-7911,S,9,1503,147,S,25.47822,-80.4455,839092.4233,416433.001,,1970/01/01 00:00:00+00,ABREUI,2016/12/13 13:19:05+00
-8947483.273,2976741.654,339,3.53019E+12,9574,Central Region Office,,Former Doral Middle,5005 NW 112TH AVE, ,Doral,33178,305-499-5050,A,0,0,0, ,25.81949,-80.37661,861234.649,540569.7304,,1970/01/01 00:00:00+00,ABREUI,2016/12/13 13:23:48+00
-8928240.628,2972659.682,435,1.31361E+11,9797,Chapman House,, ,526 NW 13TH St, ,Miami,33136,305-416-1072,O, ,0,0, ,25.78648,-80.20375,918172.2301,528877.4434,ABREUI,2018/05/31 09:32:21+00,ABREUI,2018/05/31 09:32:21+00
-8927289.303,2973086.575,312,1.31251E+11,331,Chapman Partnership Early Childhood Center North,, ,1550 NORTH MIAMI AVENUE, ,Miami,33136,305-329-3057,E,PK,0,0,C,25.78993,-80.1952,920976.6876,530149.5625,,1970/01/01 00:00:00+00,ABREUI,2016/12/13 13:26:54+00
-8949223.238,2937969.166,311,3.07901E+12,351,Chapman Partnership Early Childhood Center South,, ,28205 SW 124 COURT, ,Miami-Dade,33033,305-416-7189,E,PK,0,0,S,25.50555,-80.39224,856617.026,426442.7937,,1970/01/01 00:00:00+00,ABREUI,2016/11/15 13:48:39+00
-8937627.536,2992881.091,255,3.02106E+12,5991,Charles David Wyche Jr. Elementary,4, ,5241 NW 195TH DR, ,Miami-Dade,33055,305-628-5776,E,PK-5,937,717,N,25.94993,-80.28808,890102.5246,588127.2887,,1970/01/01 00:00:00+00,ABREUI,2016/12/13 13:32:15+00
-8930748.178,2978070.003,408,3.03115E+12,1401,Charles R. Drew K-8 Center,4, ,1775 NW 60TH ST, ,Miami-Dade,33142,305-691-8021,E,PK-7,628,391,C,25.83023,-80.22627,910666.3974,544736.3695,,1970/01/01 00:00:00+00,ABREUI,2017/01/09 13:09:44+00
-8942606.94,2971279.866,13,3.04003E+12,2331,Charles R. Hadley Elementary,7, ,8400 NW 7TH ST, ,Miami-Dade,33126,305-261-3719,E,PK-5,986,917,C,25.77532,-80.33281,875726.2138,524584.8047,,1970/01/01 00:00:00+00,ABREUI,2016/12/13 13:34:57+00
-8942609.077,2971383.728,200,3.04003E+12,2331,Charles R. Hadley PLC-A,7, ,8390 NW 7TH ST, ,Miami-Dade,33126,305-265-2714,PLC,PK-KG,0,0,C,25.77616,-80.33282,875718.3477,524890.1444,,1970/01/01 00:00:00+00,ABREUI,2016/12/13 13:35:45+00
-8956673.539,2958785.114,432,3.05905E+12,1691,Christina M. Eve Elementary,8, ,16251 SW 99TH ST, ,Miami-Dade,33196,305-383-9392,E,PK-5,890,819,S,25.6742,-80.45916,834292.9586,487642.6981,RUIZJ,2018/01/29 11:20:30+00,RUIZJ,2018/01/29 11:20:30+00
-8956221.596,2961860.888,422,3.04929E+12,1691,Christina M. Eve PLC - N,8,PLC-N,16251 SW 72ND ST, ,Miami-Dade,33193,305-383-9392,PLC,PK,0,0,S,25.6991,-80.4551,835592.8117,496697.9787,,1970/01/01 00:00:00+00,T0140179,2018/09/27 13:53:21+00
-8931231.535,2971675.779,385,1.41031E+11,801,Citrus Grove Elementary,5, ,2121 NW 5TH ST, ,Miami,33125,305-642-4141,E,PK-5,1046,813,C,25.77852,-80.23062,909347.9933,525932.1875,,1970/01/01 00:00:00+00,ABREUI,2016/12/13 13:42:07+00
-8931173.17,2971434.451,336,1.41031E+11,6091,Citrus Grove Middle,1, ,2153 NW 3RD ST, ,Miami,33125,305-642-5055,M,8-Jun,1279,879,C,25.77657,-80.23009,909524.6786,525223.6555,,1970/01/01 00:00:00+00,ABREUI,2016/12/13 13:45:32+00
-8953421.737,2959074.071,386,3.05903E+12,831,Claude Pepper Elementary,7, ,14550 SW 96TH ST, ,Miami-Dade,33186,305-386-5244,E,PK-5,1030,583,S,25.67654,-80.42996,843910.3869,488533.3809,,1970/01/01 00:00:00+00,ABREUI,2016/12/13 13:46:44+00
-8932625.09,2965541.625,387,1.4121E+11,841,Coconut Grove Elementary,10, ,3351 MATILDA ST, ,Miami,33133,305-445-7876,E,PK-5,396,483,C,25.72889,-80.24313,905331.9209,507869.4498,,1970/01/01 00:00:00+00,ABREUI,2016/12/13 13:47:31+00
-8949353.679,2942381.429,136,3.06924E+12,3621,Coconut Palm K-8 Academy,3, ,24400 SW 124TH AVE, ,Miami-Dade,33032,305-257-0500,E,K-8,1499,1478,S,25.54131,-80.39341,856171.244,439440.6848,,1970/01/01 00:00:00+00,,1970/01/01 00:00:00+00
-8946406.581,2952246.463,388,3.0503E+12,861,Colonial Drive Elementary,6, ,10755 SW 160TH ST, ,Miami-Dade,33157,305-238-2392,E,PK-5,460,312,S,25.62125,-80.36693,864761.9138,468532.6045,,1970/01/01 00:00:00+00,ABREUI,2016/12/13 13:48:57+00
-8930730.995,2974279.377,389,1.31271E+11,881,Comstock Elementary,5, ,2420 NW 18TH AVE, ,Miami,33142,305-635-7341,E,PK-5,591,524,C,25.79958,-80.22612,910782.7082,533595.1039,,1970/01/01 00:00:00+00,ABREUI,2016/12/13 13:54:22+00
-8934915.342,2966092.651,104,3.412E+11,7072,Coral Gables Adult Education,, ,450 BIRD RD, ,Coral Gables,33146,305-443-4871,O, ,0,0, ,25.73335,-80.26371,898549.6548,509451.8516,,1970/01/01 00:00:00+00,ABREUI,2016/12/13 13:55:46+00
-8934259.84,2968662.315,391,3.4108E+11,961,Coral Gables Preparatory Academy,10,Main Campus,105 MINORCA AVE, ,Coral Gables,33134,305-448-1731,E,PK-8,857,796,C,25.75414,-80.25782,900445.6494,517020.0001,,1970/01/01 00:00:00+00,ABREUI,2017/01/09 12:34:15+00
-8934061.047,2969008.411,289,3.4108E+11,961,Coral Gables Preparatory Academy MLC,10,Merredick Site,39 ZAMORA AVE, ,Coral Gables,33134,305-448-1731,E,PK-8,857,796,C,25.75694,-80.25603,901027.6958,518041.0692,,1970/01/01 00:00:00+00,ABREUI,2017/01/09 12:35:03+00
-8934859.855,2966134.242,271,3.412E+11,7071,Coral Gables Senior High,4, ,450 BIRD RD, ,Coral Gables,33146,305-443-4871,S,12-Sep,2924,3416,C,25.73368,-80.26321,898713.0618,509575.0941,,1970/01/01 00:00:00+00,,1970/01/01 00:00:00+00
-8944681.672,2969049.218,392,3.04009E+12,1001,Coral Park Elementary,10, ,1225 SW 97TH AVE, ,Miami-Dade,33174,305-221-5632,E,PK-5,952,1113,C,25.75727,-80.35144,869625.1038,517995.2331,,1970/01/01 00:00:00+00,ABREUI,2016/12/13 14:01:50+00
-8941459.944,2953303.722,393,3.35022E+12,1041,Coral Reef Elementary,9, ,7955 SW 152ND ST, ,Palmetto Bay,33157,305-235-1464,E,PK-5,932,860,S,25.62981,-80.32251,879388.224,471717.3896,,1970/01/01 00:00:00+00,ABREUI,2016/12/13 14:02:28+00
-8945281.049,2953292.776,107,3.0502E+12,7101,Coral Reef Senior High,9, ,10101 SW 152ND ST, ,Miami-Dade,33157,305-232-2044,S,12-Sep,2675,3377,S,25.62972,-80.35682,868078.5704,471628.7839,,1970/01/01 00:00:00+00,ABREUI,2016/12/13 14:03:15+00
-8939657.187,2967967.566,394,3.04011E+12,1081,Coral Terrace Elementary,8, ,6801 SW 24TH ST, ,Miami-Dade,33155,305-262-8300,E,PK-5,654,448,C,25.74852,-80.3063,884497.6396,514890.0179,,1970/01/01 00:00:00+00,ABREUI,2016/12/13 14:04:56+00
-8929802.402,2968606.047,395,1.4111E+11,1121,Coral Way Bilingual K-8 Center ,8, ,1950 SW 13TH AVE, ,Miami,33145,305-854-0515,E,PK-8,1552,1439,C,25.75368,-80.21779,913626.3647,516930.7178,,1970/01/01 00:00:00+00,ABREUI,2016/12/13 14:06:19+00
-8941489.446,2991615.175,127,3.02011E+12,6611,Country Club Middle,3, ,18305 NW 75TH PL, ,Miami-Dade,33015,305-820-8800,M,8-Jun,1038,764,N,25.9397,-80.32276,878721.7643,584350.0543,,1970/01/01 00:00:00+00,ABREUI,2016/12/13 14:07:16+00
-8932061.489,2992287.44,396,3.42103E+12,1161,Crestview Elementary,6, ,2201 NW 187TH ST, ,Miami Gardens,33056,305-624-1495,E,PK-5,884,407,N,25.94513,-80.23807,906543.1876,586476.8127,,1970/01/01 00:00:00+00,,1970/01/01 00:00:00+00
-8944403.621,2948044.25,337,3.66005E+12,6111,Cutler Bay Middle,2, ,19400 GULFSTREAM RD, ,Cutler Bay,33157,305-235-4761,M,8-Jun,1439,997,S,25.5872,-80.34894,870751.5,456188.6871,,1970/01/01 00:00:00+00,,1970/01/01 00:00:00+00
-8942347.714,2946056.5,335,3.0601E+12,6081,Cutler Bay Senior High,8, ,8601 SW 212TH ST, ,Cutler Bay,33189,305-235-1581,M,10-Aug,1549,475,S,25.5711,-80.33048,876868.3238,450365.1994,,1970/01/01 00:00:00+00,ABREUI,2016/12/13 14:14:59+00
-8944947.571,2947124.154,93,3.06008E+12,1241,Cutler Ridge Elementary,5, ,20210 CORAL SEA RD, ,Cutler Bay,33189,305-235-4611,E,PK-5,1000,587,S,25.57975,-80.35383,869154.1296,453471.2971,,1970/01/01 00:00:00+00,ABREUI,2017/01/09 12:44:24+00
-8947455.26,2964061.921,94,3.04019E+12,1281,Cypress K-8 Center,6, ,5400 SW 112TH CT, ,Miami-Dade,33165,305-271-1611,E,PK-5,486,280,S,25.71691,-80.37637,861493.8539,503287.6253,,1970/01/01 00:00:00+00,ABREUI,2016/12/13 14:20:26+00
-8930679.542,2979224.044,7,3.0311E+12,8139,D.A. Dorsey Technical College,, ,7100 NW 17TH AVE, ,Miami-Dade,33147,305-693-2490,O, ,0,0,C,25.83956,-80.22567,910849.2357,548129.0077,,1970/01/01 00:00:00+00,ABREUI,2016/12/13 14:22:04+00
-8950892.965,2967445.211,305,3.04911E+12,9412,Dade County Public School-Management Information,, ,13135 SW 26TH ST, ,Miami-Dade,33175,305-994-2530,A, ,0,0, ,25.74429,-80.40724,851281.603,513191.8183,,1970/01/01 00:00:00+00,ABREUI,2016/12/14 13:50:35+00
-8955127.964,2961156.414,149,3.04933E+12,1811,Dante B. Fascell Elementary,9, ,15625 SW 80TH ST, ,Miami-Dade,33193,305-380-1901,E,PK-5,721,489,S,25.69339,-80.44528,838836.5628,494638.8438,,1970/01/01 00:00:00+00,,1970/01/01 00:00:00+00
-8937551.951,2965629.366,17,3.04024E+12,1761,David Fairchild Elementary,9, ,5757 SW 45TH ST, ,Miami-Dade,33155,305-665-5483,E,PK-5,728,595,C,25.7296,-80.28739,890759.7813,508046.4057,,1970/01/01 00:00:00+00,ABREUI,2016/12/13 14:23:57+00
-8921759.029,2988415.372,353,6.2221E+11,5005,David Lawrence Jr. K-8 Center,6, ,15000 BAY VISTA BLVD, ,North Miami,33181,305-354-2600,E,PK-8,1362,1644,N,25.91385,-80.14553,937030.9171,575294.2919,,1970/01/01 00:00:00+00,ABREUI,2016/12/13 14:25:18+00
-8924888.445,2985167.714,441,6.2229E+11,5005,David Lawrence Jr. K-8 Center PLC South Campus,6,David Lawrence Jr. K-8 Center,12175 NE 12TH CT, ,North Miami,33161,305-892-7080,PLC,PK-KG,0,0,N,25.88761,-80.17363,927850.2792,565696.1397,ABREUI,2018/05/31 09:34:11+00,ABREUI,2018/05/31 09:34:11+00
-8926792.475,2975999.253,105,1.3219E+11,7081,Design & Architecture Senior High,10, ,4001 NE 2ND AVE, ,Miami,33137,305-573-7135,S,12-Sep,396,518,C,25.81349,-80.19075,922392.6369,538720.6117,,1970/01/01 00:00:00+00,ABREUI,2016/12/13 14:27:00+00
-8949140.703,2958148.423,139,3.05912E+12,1331,Devon Aire K-8 Center,8, ,10501 SW 122ND AVE, ,Miami-Dade,33186,305-274-7100,E,PK-8,1391,1494,S,25.66904,-80.3915,856588.9996,485865.9795,,1970/01/01 00:00:00+00,ABREUI,2016/12/13 14:28:19+00
-8936096.088,2975869.012,308,5.3119E+11,9573,District Office/Charter School,, ,1080 LA BARON DR, ,Miami Springs,33166,305-883-0403,A, ,0,0, ,25.81243,-80.27431,894899.5268,538177.4168,,1970/01/01 00:00:00+00,,1970/01/01 00:00:00+00
-8954731.52,2962505.782,423,3.04928E+12,451,Doolin/Bowman Foster Ashe Elementary,7,Main Campus,6601 SW 152ND AVE, ,Miami-Dade,33193,305-386-6667,E,PK-8,2099,1060,S,25.70432,-80.44172,839992.5593,498613.608,,1970/01/01 00:00:00+00,T0140179,2018/09/28 11:46:00+00
-8945499.673,2953681.91,6,3.0502E+12,8131,Dorothy M. Wallace C.O.P.E. Center,, ,10225 SW 147TH TER, ,Miami-Dade,33176,305-233-1044,ALT,12-Jun,357,64,S,25.63287,-80.35879,867425.9371,472771.1243,,1970/01/01 00:00:00+00,ABREUI,2016/12/13 14:34:06+00
-8948033.792,2969286.127,60,3.04007E+12,5061,Dr. Carlos J. Finlay Elementary,10, ,851 SW 117TH AVE, ,Miami-Dade,33174,305-552-7122,E,PK-5,626,509,S,25.75919,-80.38155,859710.7291,518644.2546,,1970/01/01 00:00:00+00,ABREUI,2016/12/13 14:34:50+00
-8942409.823,2945279.219,253,3.06009E+12,5981,Dr. Edward L. Whigham Elementary,5,Main Campus,21545 SW 87TH AVE, ,Cutler Bay,33189,305-234-4840,E,PK-5,898,801,S,25.5648,-80.33103,876695.9377,448075.0211,,1970/01/01 00:00:00+00,ABREUI,2017/01/11 09:35:44+00
-8941735.299,2947817.569,254,3.66003E+12,5981,Dr. Edward L. Whigham PLC-E,5, ,8035 SW 196TH ST, ,Cutler Bay,33189,305-252-5050,PLC,PK,0,0,S,25.58537,-80.32497,878655.4724,455560.6519,,1970/01/01 00:00:00+00,,1970/01/01 00:00:00+00
-8936468.664,2994333.873,420,3.41132E+12,5081,Dr. Frederica S. Wilson/Skyway Elementary,5, ,4555 NW 206TH TER, ,Miami Gardens,33055,305-621-5838,E,PK-5,588,227,N,25.96166,-80.27766,893499.875,592411.0619,,1970/01/01 00:00:00+00,T0140179,2018/09/27 14:20:43+00
-8955950.199,2957609.933,52,3.05908E+12,4511,Dr. Gilbert L. Porter Elementary,9, ,15851 SW 112TH ST, ,Miami-Dade,33196,305-382-0792,E,PK-5,937,687,S,25.66468,-80.45267,836447.4103,484193.299,,1970/01/01 00:00:00+00,ABREUI,2017/01/10 13:20:05+00
-8955759.467,2957597.983,53,3.05908E+12,4511,Dr. Gilbert L. Porter Elementary PLC-Q,9, ,15751 SW 112TH ST, ,Miami-Dade,33196,305-382-0792,PLC,PK,0,0,S,25.66459,-80.45096,837011.9198,484160.4701,,1970/01/01 00:00:00+00,ABREUI,2017/01/10 13:20:20+00
-8942947.327,2951521.325,44,3.35028E+12,4381,Dr. Henry E. Perrine Academy of the Arts,7, ,8851 SW 168TH ST, ,Palmetto Bay,33157,305-235-2442,E,KG-5,840,784,S,25.61537,-80.33586,875012.1256,466447.9376,,1970/01/01 00:00:00+00,,1970/01/01 00:00:00+00
-8932146.861,2980561.405,248,3.0311E+12,5861,Dr. Henry W. Mack/West Little K-8 Center,3, ,2450 NW 84TH ST, ,Miami-Dade,33147,305-691-6491,E,PK-8,565,499,C,25.85037,-80.23884,906491.0192,552033.5215,,1970/01/01 00:00:00+00,ABREUI,2016/12/14 08:12:04+00
-8956207.666,2964134.145,236,3.0492E+12,211,Dr. Manuel C. Barreiro Elementary,9, ,5125 SW 162ND AVE, ,Miami-Dade,33185,305-229-4800,E,PK-5,1148,781,S,25.7175,-80.45499,835606.423,503385.5148,,1970/01/01 00:00:00+00,ABREUI,2016/12/14 08:13:21+00
-8956519.074,2964415.652,406,3.0492E+12,211,Dr. Manuel C. Barreiro Elementary ECC-3,9, ,16350 SW 47TH ST, ,Miami-Dade,33185,305-228-4200,E,2-Jan,1148,781,S,25.71978,-80.45778,834681.9962,504209.7762,,1970/01/01 00:00:00+00,ABREUI,2016/12/14 08:52:45+00
-8929760.915,2979258.529,438,3.03111E+12,2981,Dr. Martin Luther King  @ Liberty City PLC,, ,7124 NW 12TH AVE, ,Miami-Dade,33150,305-836-0928,PLC,PK-3,0,0,AC,25.83984,-80.2174,913562.8851,548246.4191,ABREUI,2018/05/31 09:33:19+00,ABREUI,2018/10/30 12:04:37+00
-8928038.703,2981214.726,439,3.03101E+12,8019,Dr. Marvin Dunn Academy For Community Education,, ,8950 NW 2ND AVE, ,El Portal,33150,305-460-2946,ALT,12-Sep,0,69,AC,25.85565,-80.20193,918616.5673,554025.2033,ABREUI,2018/05/31 09:33:36+00,ABREUI,2018/05/31 09:33:36+00
-8924858.547,2995556.03,367,3.01232E+12,7141,Dr. Michael M. Krop Senior High,5, ,1410 NE 215TH ST, ,Miami-Dade,33179,305-652-6808,S,12-Sep,2383,2799,N,25.97153,-80.17338,927746.1245,596201.5622,,1970/01/01 00:00:00+00,,1970/01/01 00:00:00+00
-8933148.991,2987251.445,35,8.2121E+11,4121,Dr. Robert  B. Ingram Elementary,3, ,600 AHMAD ST, ,Opa-Locka,33054,305-688-4605,E,PK-5,558,422,N,25.90445,-80.24784,903417.7083,571669.8336,,1970/01/01 00:00:00+00,ABREUI,2016/12/14 09:04:24+00
-8947904.201,2980672.781,230,3.53007E+12,122,Dr. Rolando Espinosa K-8 Center,6, ,11250 NW 86TH ST, ,Doral,33178,305-889-5757,E,PK-8,1519,1649,C,25.85127,-80.3804,859936.3123,552116.1834,,1970/01/01 00:00:00+00,ABREUI,2016/12/14 09:05:31+00
-8948142.535,2981019.4,431,3.53007E+12,4011,Dr. Toni Bilbao Preparatory Academy,, ,8905 NW 114 AVE, ,Doral,33178,305-863-5750,E,PK-2,670,247,C,25.85408,-80.38253,859227.4081,553131.3243,RUIZJ,2018/01/26 15:30:56+00,RUIZJ,2018/01/26 15:32:32+00
-8944957.637,2970622.383,72,3.04005E+12,5381,E.W.F. Stirrup Elementary,6, ,330 NW 97TH AVE, ,Miami-Dade,33172,305-226-7001,E,PK-5,974,897,C,25.77,-80.35392,868786.4934,522617.0274,,1970/01/01 00:00:00+00,ABREUI,2016/11/15 13:44:29+00
-8931500.09,2976508.611,411,3.03122E+12,1561,Earlington Heights Elementary,6, ,4750 NW 22ND AVE, ,Miami-Dade,33142,305-635-7505,E,PK-5,656,457,C,25.81761,-80.23303,908471.3249,540134.3924,,1970/01/01 00:00:00+00,ABREUI,2016/12/14 09:09:47+00
-8947070.761,2961764.765,429,3.04031E+12,9731,"Early Childhood, ESE and Tiitle",, ,11001 SW 76TH ST, ,Miami-Dade,33173,305-995-7243,SPC,12,0,133,AC,25.69832,-80.3729,862663.159,496535.2413,RUIZJ,2018/01/26 15:21:28+00,T0140179,2018/09/27 14:54:37+00
-8928355.05,2978753.424,179,1.3113E+11,1601,Edison Park K-8 Center,5, ,500 NW 67TH ST, ,Miami,33150,305-758-3658,E,PK-7,614,447,C,25.83576,-80.20478,917725.7499,546787.001,,1970/01/01 00:00:00+00,,1970/01/01 00:00:00+00
-8932464.022,2978349.305,430,3.03116E+12,8017,Educational Alternative Outreach Program,1, ,6300 NW 27 AVE, ,Miami-Dade,33142,305-694-4444,ALT,K-12,0,738,AC,25.83249,-80.2417,905591.4987,545527.6568,RUIZJ,2018/01/26 15:22:13+00,T0140179,2018/09/27 14:44:20+00
-8941673.331,2966568.226,397,3.04015E+12,1641,Emerson Elementary,9, ,8001 SW 36TH ST, ,Miami-Dade,33155,305-264-5757,E,PK-5,576,338,C,25.73719,-80.32442,878557.1742,510743.6673,,1970/01/01 00:00:00+00,ABREUI,2017/01/09 13:22:44+00
-8928047.417,2974834.5,202,1.31251E+11,2351,Eneida Massas Hartner Elementary,4, ,401 NW 29TH ST, ,Miami,33127,305-573-8181,E,PK-5,713,471,C,25.80407,-80.20201,918704.6126,535274.2824,,1970/01/01 00:00:00+00,ABREUI,2016/12/14 09:13:46+00
-8933572.416,2966903.666,1,1.4116E+11,7841,English Center,, ,3501 SW 28TH ST, ,Miami,33133,305-445-7731,O, ,0,0,AC,25.73991,-80.25164,902507.5625,511859.4999,,1970/01/01 00:00:00+00,ABREUI,2016/12/14 09:15:15+00
-8944369.648,2985213.931,293,4.2028E+11,5051,Ernest R. Graham K-8 Center,7, ,7330 W 32ND AVE, ,Hialeah,33018,305-825-2122,E,PK-8,1489,1403,N,25.88798,-80.34864,870312.3896,565507.9297,,1970/01/01 00:00:00+00,ABREUI,2016/12/14 09:16:04+00
-8945744.558,2951141.09,404,3.05032E+12,4651,Ethel F. Beckford/Richmond Primary Learning Center,, ,16929 SW 104TH AVE, ,Miami-Dade,33157,305-238-5194,PLC,PK-5,0,0,S,25.61229,-80.36099,866737.2139,465287.7825,,1970/01/01 00:00:00+00,ABREUI,2016/12/14 09:16:56+00
-8952969.388,2964668.672,421,3.04922E+12,251,Ethel Koger Beckham K-8 Center,10, ,4702 SW 143RD CT, ,Miami-Dade,33175,305-222-8161,E,PK-8,674,789,S,25.72182,-80.42589,845177.2077,504998.4106,,1970/01/01 00:00:00+00,T0140179,2018/09/27 15:06:30+00
-8948155.226,2977757.319,190,3.53018E+12,71,Eugenia B. Thomas K-8 Center,7, ,5950 NW 114TH AVE, ,Doral,33178,305-592-7914,E,PK-8,1598,1680,C,25.8277,-80.38264,859234.937,543545.3746,,1970/01/01 00:00:00+00,,1970/01/01 00:00:00+00
-8942458.795,2968817.12,16,3.0401E+12,1721,Everglades Elementary,8,Lower Academy,8375 SW 16TH ST, ,Miami-Dade,33155,305-264-4154,E,PK-8,1188,1025,C,25.75539,-80.33147,876200.8952,517345.5458,,1970/01/01 00:00:00+00,ABREUI,2017/01/09 13:27:37+00
-8942292.453,2968968.973,416,3.0401E+12,1721,Everglades K-8 Center,8,Upper Academy,8300 SW 16TH ST, ,Miami-Dade,33155,305-264-4154,U,PK-8,1188,1025,C,25.75662,-80.32999,876690.4524,517794.588,ABREUI,2016/12/14 10:22:55+00,ABREUI,2017/01/09 13:28:11+00
-8938232.698,2970206.906,148,1.4001E+11,1801,Fairlawn Elementary,8, ,444 SW 60TH AVE, ,Miami,33144,305-261-8880,E,PK-5,612,639,C,25.76664,-80.29351,888674.4379,521497.4062,,1970/01/01 00:00:00+00,,1970/01/01 00:00:00+00
-8954853.755,2959231.297,101,3.05904E+12,7781,Felix Varela Senior High,5, ,15255 SW 96TH ST, ,Miami-Dade,33196,305-752-7900,S,12-Sep,2795,2849,S,25.67781,-80.44282,839671.6113,488977.9636,,1970/01/01 00:00:00+00,ABREUI,2016/12/14 10:31:46+00
-8920290.227,2972624.522,383,2.3234E+11,761,Fienberg/Fisher K-8 Center,6, ,1420 WASHINGTON AVE, ,Miami Beach,33139,305-531-0419,E,PK-8,896,794,N,25.78619,-80.13233,941674.5039,528922.5378,,1970/01/01 00:00:00+00,ABREUI,2016/12/14 10:35:04+00
-8941009.864,2969549.252,150,3.04011E+12,1841,Flagami Elementary,9, ,920 SW 76TH AVE, ,Miami-Dade,33144,305-261-2031,E,PK-5,548,418,C,25.76131,-80.31846,880473.8613,519520.3754,,1970/01/01 00:00:00+00,ABREUI,2016/12/14 10:37:38+00
-8935375.32,2980883.939,152,4.3105E+11,1921,Flamingo Elementary,7, ,701 E 33RD ST, ,Hialeah,33013,305-691-5531,E,PK-5,884,628,N,25.85298,-80.26785,896947.5727,552927.033,,1970/01/01 00:00:00+00,ABREUI,2016/12/14 10:48:38+00
-8959684.415,2931367.632,153,1.67824E+12,2001,Florida City Elementary,3, ,364 NW 6TH AVE, ,Florida City,33034,305-247-4676,E,PK-5,920,771,S,25.45201,-80.48621,825697.1878,406855.4376,,1970/01/01 00:00:00+00,,1970/01/01 00:00:00+00
-8938212.425,2963185.02,437,9.40251E+11,9018,Florida Diagnostic and Learning Resources System/South,,Former JRE Lee Center,6521 SW 62ND Ave, ,South Miami,33143,305-274-3501,SPC,PK-K,0,0, ,25.70981,-80.29333,888844.9955,500845.7744,ABREUI,2018/05/31 09:33:07+00,ABREUI,2018/05/31 09:33:07+00
-8939994.175,2970620.496,303,1.4002E+11,9025,Food & Nutrition Center,, ,7042 W FLAGLER ST, ,Miami,33144,786-275-0420,A, ,0,0, ,25.76998,-80.30933,883460.3279,522685.9009,,1970/01/01 00:00:00+00,ABREUI,2016/12/14 11:07:47+00
-8931301.924,2970493.798,228,1.4103E+11,9001,Former Region Office/Warehouse,,South Central Regional Office,2201 SW 4th STREET, ,Miami,33135,305-642-7555,A, ,0,0, ,25.76896,-80.23125,909160.1869,522455.6599,,1970/01/01 00:00:00+00,ABREUI,2016/12/22 16:56:12+00
-8933826.699,2965224.599,223,1.412E+11,5561,Frances S. Tucker Elementary,7, ,3500 DOUGLAS RD, ,Miami,33133,305-567-3533,E,PK-5,576,388,C,25.72632,-80.25393,901783.5335,506916.7289,,1970/01/01 00:00:00+00,ABREUI,2016/12/14 11:17:05+00
-8947344.429,2954295.37,177,3.05019E+12,3101,Frank C. Martin K-8 Center,8, ,14250 BOGGS DR, ,Miami-Dade,33176,305-238-3688,E,PK-8,1347,1128,S,25.63784,-80.37536,861957.4174,474550.7815,,1970/01/01 00:00:00+00,ABREUI,2016/12/14 11:21:54+00
-8927914.453,2972516.91,140,1.3136E+11,1361,Frederick Douglass Elementary,4, ,314 NW 12TH ST, ,Miami,33136,305-371-4687,E,PK-5,772,207,C,25.78532,-80.20082,919138.955,528463.5401,,1970/01/01 00:00:00+00,ABREUI,2016/12/14 11:22:36+00
-8923848.011,2989639.053,156,7.2217E+11,2081,Fulford Elementary,6, ,16140 NE 18TH AVE, ,North Miami Beach,33162,305-949-3425,E,PK-5,609,531,N,25.92374,-80.16429,930839.5205,578848.1456,,1970/01/01 00:00:00+00,ABREUI,2017/01/09 14:05:09+00
-8953541.972,2966184.914,267,3.04915E+12,7051,G. Holmes Braddock Senior High,4, ,3601 SW 147TH AVE, ,Miami-Dade,33185,305-225-9729,S,12-Sep,3818,3620,S,25.73409,-80.43104,843464.5496,509450.7767,,1970/01/01 00:00:00+00,ABREUI,2016/11/15 13:47:10+00
-8955734.784,2932463.208,31,1.07917E+12,4031,Gateway Environmental K-8 Learning Center,4, ,955 SE 18TH AVE, ,Homestead,33035,305-257-6000,E,PK-8,1650,1900,S,25.4609,-80.45073,837391.1902,410131.7089,,1970/01/01 00:00:00+00,ABREUI,2016/12/14 11:27:19+00
-8934899.41,2974850.154,103,3.03129E+12,7801,George T. Baker Aviation Technical College,, ,3275 NW 42ND AVE, ,Miami-Dade,33142,305-871-3143,O, ,0,0,AC,25.80419,-80.26356,898452.8753,535202.2498,,1970/01/01 00:00:00+00,,1970/01/01 00:00:00+00
-8934387.349,2965336.002,382,3.412E+11,721,George Washington Carver Elementay,8, ,238 GRAND AVE, ,Coral Gables,33133,305-443-5286,E,KG-5,486,387,C,25.72722,-80.25896,900123.5835,507235.0667,,1970/01/01 00:00:00+00,ABREUI,2016/12/14 11:30:45+00
-8934387.208,2965172.424,334,3.412E+11,6071,George Washington Carver Middle,10, ,4901 LINCOLN DR, ,Coral Gables,33133,305-444-7388,M,8-Jun,872,1003,C,25.7259,-80.25896,900126.7028,506753.9234,,1970/01/01 00:00:00+00,ABREUI,2016/12/14 11:31:08+00
-8929918.652,2976512.666,257,1.3123E+11,6011,Georgia Jones-Ayers Middle/Allapattah,1, ,1331 NW 46TH ST, ,Miami,33142,305-634-9787,M,8-Jun,1150,466,C,25.81764,-80.21882,913144.7629,540173.8113,,1970/01/01 00:00:00+00,ABREUI,2016/12/14 11:32:13+00
-8926269.485,2990761.625,346,3.02207E+12,4801,Gertrude Edelman/Sabal Palm Elementary,8, ,17101 NE 7TH AVE, ,Miami-Dade,33162,305-651-2411,E,PK-5,696,602,N,25.93281,-80.18605,923669.3748,582099.5622,,1970/01/01 00:00:00+00,,1970/01/01 00:00:00+00
-8944244.056,2963161.623,342,3.04028E+12,6211,Glades Middle,7, ,9451 SW 64TH ST, ,Miami-Dade,33173,305-271-3342,M,8-Jun,951,1028,S,25.70963,-80.34751,871004.6164,500685.1449,,1970/01/01 00:00:00+00,ABREUI,2016/12/14 11:36:15+00
-8946936.092,2955926.486,154,3.05018E+12,2021,Gloria Floyd Elementary,7, ,12650 SW 109TH AVE, ,Miami-Dade,33176,305-255-3934,E,PK-5,792,551,S,25.65105,-80.37169,863143.1516,479357.4173,,1970/01/01 00:00:00+00,ABREUI,2016/12/14 11:38:31+00
-8933067.606,2989799.839,233,3.42116E+12,2161,Golden Glades Elementary,4, ,16520 NW 28TH AVE, ,Miami Gardens,33054,305-624-9641,E,PK-5,438,220,N,25.92504,-80.24712,903615.0629,579155.3122,,1970/01/01 00:00:00+00,,1970/01/01 00:00:00+00
-8946930.625,2943314.95,240,3.06019E+12,311,Goulds Elementary,2, ,23555 SW 112TH AVE, ,Miami-Dade,33032,305-257-4400,E,KG-5,824,632,S,25.54888,-80.37164,863335.2982,442223.9429,,1970/01/01 00:00:00+00,ABREUI,2016/12/14 11:39:50+00
-8927601.064,2984853.437,8,3.02125E+12,2241,Gratigny Elementary,5, ,11905 N MIAMI AVE, ,Miami-Dade,33168,305-681-6685,E,PK-6,800,538,N,25.88507,-80.198,919844.1853,564723.2388,,1970/01/01 00:00:00+00,ABREUI,2016/12/14 11:40:33+00
-8950147.101,2966840.81,9,3.04914E+12,2261,Greenglade Elementary,9, ,3060 SW 127TH AVE, ,Miami-Dade,33175,305-223-5330,E,PK-5,560,498,S,25.7394,-80.40055,853495.1828,511424.2666,,1970/01/01 00:00:00+00,ABREUI,2016/12/14 11:43:32+00
-8924483.742,2991659.751,10,7.2208E+11,2281,Greynolds Park Elementary,7, ,1536 NE 179TH ST, ,North Miami Beach,33162,305-949-2129,E,PK-5,986,697,N,25.94006,-80.17,928924.8625,584769.8021,,1970/01/01 00:00:00+00,ABREUI,2016/12/14 11:57:46+00
-8924386.093,2991505.671,11,7.2208E+11,2281,Greynolds Park Elementary PLC-C,7, ,1575 NE 177TH ST, ,North Miami Beach,33162,305-354-3208,PLC,PK,0,0,N,25.93882,-80.16913,929216.0131,584319.2188,,1970/01/01 00:00:00+00,ABREUI,2016/11/10 12:36:13+00
-8944363.097,2946261.068,12,3.66008E+12,2321,Gulfstream Elementary,9, ,20900 SW 97TH AVE, ,Cutler Bay,33189,305-235-6811,E,PK-5,753,655,S,25.57276,-80.34858,870897.2674,450937.9756,,1970/01/01 00:00:00+00,ABREUI,2016/12/14 11:59:42+00
-8954846.288,2958790.065,290,3.05904E+12,6221,Hammocks Middle,7, ,9889 HAMMOCKS BLVD, ,Miami-Dade,33196,305-385-0896,M,8-Jun,1478,933,S,25.67424,-80.44275,839699.173,487679.7126,,1970/01/01 00:00:00+00,ABREUI,2016/12/14 12:03:18+00
-8931365.04,2983759.896,50,3.02134E+12,4491,Henry E.S. Reeves Elementary,6, ,2005 NW 111TH ST, ,Miami-Dade,33167,305-953-7243,E,KG-5,731,717,C,25.87623,-80.23181,908745.8751,561444.3132,,1970/01/01 00:00:00+00,,1970/01/01 00:00:00+00
-8938213.719,2980327.014,341,4.3012E+11,6171,Henry H. Filer Middle,5, ,531 W 29TH ST, ,Hialeah,33012,305-822-6601,M,8-Jun,1116,875,N,25.84848,-80.29334,888570.8178,551244.6816,,1970/01/01 00:00:00+00,ABREUI,2016/12/14 12:47:24+00
-8936877.44,2970875.077,151,1.4106E+11,1881,Henry M. Flagler Elementary,7, ,5222 NW 1ST ST, ,Miami,33126,305-443-2529,E,PK-5,938,737,C,25.77204,-80.28133,892670.4995,523483.7147,,1970/01/01 00:00:00+00,ABREUI,2016/12/14 12:48:30+00
-8936048.619,2964588.312,247,3.413E+11,5831,Henry S. West Laboratory School,10, ,5300 CARILLO ST, ,Coral Gables,33146,305-661-7661,E,KG-5,336,321,C,25.72117,-80.27389,895222.56,505008.4798,,1970/01/01 00:00:00+00,ABREUI,2016/12/14 12:56:22+00
-8952562.011,2949734.566,256,3.05934E+12,6001,Herbert A. Ammons Middle,10, ,17990 SW 142ND AVE, ,Miami-Dade,33177,305-971-0158,M,8-Jun,990,1218,S,25.6009,-80.42223,846573.9637,461054.0094,,1970/01/01 00:00:00+00,ABREUI,2016/12/14 12:57:40+00
-8936231.262,2982437.665,109,4.31061E+11,7112,Hialeah Adult Education Center,, ,251 E 47TH ST, ,Hialeah,33012,305-822-1500,O, ,0,0, ,25.86554,-80.27553,894393.6606,557478.0737,,1970/01/01 00:00:00+00,ABREUI,2016/12/14 13:02:20+00
-8935672.547,2977945.928,203,4.3117E+11,2361,Hialeah Elementary,8, ,550 E 8TH ST, ,Hialeah,33010,305-888-6709,E,PK-5,976,609,C,25.82923,-80.27051,896117.3824,544288.5569,,1970/01/01 00:00:00+00,ABREUI,2016/12/14 13:04:03+00
-8945297.971,2985591.301,157,2.72029E+12,2111,Hialeah Gardens Elementary,9, ,9702 NW 130TH ST, ,Hialeah Gardens,33018,305-827-8830,E,PK-5,931,884,N,25.89103,-80.35698,867565.2235,566602.8819,,1970/01/01 00:00:00+00,,1970/01/01 00:00:00+00
-8945342.083,2985438.484,158,2.72029E+12,2111,Hialeah Gardens Elementary PLC- B,9, ,9749 NW 127TH TER, ,Hialeah Gardens,33018,305-818-7976,PLC,PK-5,0,0,N,25.88979,-80.35737,867437.1437,566153.3661,,1970/01/01 00:00:00+00,,1970/01/01 00:00:00+00
-8944288.953,2984202.445,165,2.72033E+12,6751,Hialeah Gardens Middle,7, ,11690 NW 92ND AVE, ,Hialeah Gardens,33018,305-817-0017,M,8-Jun,1505,1681,N,25.8798,-80.34791,870565.4791,562537.8648,,1970/01/01 00:00:00+00,ABREUI,2016/12/14 13:07:02+00
-8944951.618,2984186.984,371,2.72033E+12,7191,Hialeah Gardens Senior High,4, ,11700 HIALEAH GARDENS BLVD, ,Hialeah Gardens,33018,305-698-5000,S,12-Sep,2670,3119,N,25.87968,-80.35386,868608.4354,562482.7698,,1970/01/01 00:00:00+00,ABREUI,2016/12/14 13:09:26+00
-8935446.671,2983931.108,412,4.2132E+11,6231,Hialeah Middle,3, ,6027 E 7TH AVE, ,Hialeah,33013,305-681-3527,M,8-Jun,923,727,N,25.87761,-80.26848,896686.9104,561878.4175,,1970/01/01 00:00:00+00,ABREUI,2016/11/10 12:21:50+00
-8936479.393,2982425.484,108,4.31061E+11,7111,Hialeah Senior High,2, ,251 E 47TH ST, ,Hialeah,33013,305-822-1500,S,12-Sep,3354,2556,N,25.86544,-80.27776,893660.8748,557438.2493,,1970/01/01 00:00:00+00,,1970/01/01 00:00:00+00
-8939770.302,2986077.683,366,4.2025E+11,7132,Hialeah-Miami Lakes Adult Education,, ,7977 W 12TH AVE, ,Hialeah,33014,305-823-1330,O, ,0,0, ,25.89496,-80.30732,883882.8746,568114.6247,,1970/01/01 00:00:00+00,ABREUI,2016/12/14 13:21:10+00
-8939770.302,2986077.683,365,4.2025E+11,7131,Hialeah-Miami Lakes Senior High,5, ,7977 W 12TH AVE, ,Hialeah,33014,305-823-1330,S,12-Sep,2924,1726,N,25.89496,-80.30732,883882.8746,568114.6246,,1970/01/01 00:00:00+00,,1970/01/01 00:00:00+00
-8928158.779,2992456.518,205,3.42101E+12,2401,Hibiscus Elementary,3, ,18701 NW 1ST AVE, ,Miami Gardens,33169,305-652-3018,E,PK-5,665,495,N,25.9465,-80.20302,918061.1878,587041.8122,,1970/01/01 00:00:00+00,,1970/01/01 00:00:00+00
-8922721.374,2994621.444,413,3.01233E+12,6241,Highland Oaks Middle,5, ,2375 NE 203RD ST, ,Miami-Dade,33180,305-932-3810,M,8-Jun,999,1139,N,25.96398,-80.15417,934071.563,593498.3751,,1970/01/01 00:00:00+00,,1970/01/01 00:00:00+00
-8929624.115,2978788.171,207,1.3114E+11,2501,Holmes Elementary,1, ,1175 NW 67TH ST, ,Miami,33150,305-836-3421,E,PK-5,572,504,C,25.83604,-80.21618,913975.3285,546866.5947,,1970/01/01 00:00:00+00,ABREUI,2016/12/14 13:25:44+00
-8959201.591,2934368.799,18,1.07813E+12,6251,Homestead Middle,2, ,650 NW 2ND AVE, ,Homestead,33030,305-247-4221,M,8-Jun,992,693,S,25.47635,-80.48187,827093.9537,415707.3879,,1970/01/01 00:00:00+00,ABREUI,2016/12/14 13:26:26+00
-8956751.92,2930968.183,368,1.0792E+12,7151,Homestead Senior High School,2, ,2351 SE 12TH AVE, ,Homestead,33034,305-245-7000,S,12-Sep,2894,1875,S,25.44877,-80.45987,834394.3162,405712.2202,,1970/01/01 00:00:00+00,ABREUI,2016/12/14 13:28:04+00
-8928032.733,2981357.189,25,3.03101E+12,6411,Horace Mann Middle,4, ,8950 NW 2ND AVE, ,El Portal,33150,305-757-9537,M,8-Jun,1281,736,C,25.85681,-80.20188,918631.6618,554443.9013,,1970/01/01 00:00:00+00,ABREUI,2016/12/19 08:18:09+00
-8950742.933,2963507.749,26,3.04926E+12,6441,Howard D. Mcmillan Middle,7, ,13100 SW 59TH ST, ,Miami-Dade,33183,305-385-6877,M,8-Jun,1243,902,S,25.71243,-80.40589,851777.3749,501612.6244,,1970/01/01 00:00:00+00,,1970/01/01 00:00:00+00
-8941054.47,2955053.464,284,3.05022E+12,2541,Howard Drive Elementary,5, ,7750 SW 136TH ST, ,Palmetto Bay,33156,305-235-1412,E,PK-5,771,592,S,25.64398,-80.31886,880561.8682,476873.9754,,1970/01/01 00:00:00+00,ABREUI,2016/12/14 13:32:09+00
-8928216.101,2984325.592,66,3.02136E+12,5141,Hubert O. Sibley K-8 Center,3, ,255 NW 115TH ST, ,Miami-Dade,33168,305-953-3737,E,PK-8,965,834,N,25.8808,-80.20353,918037.046,563161.5861,,1970/01/01 00:00:00+00,ABREUI,2016/12/14 13:32:55+00
-8937222.858,2962851.869,114,3.413E+11,7571,International Studies Preparatory Academy,9, ,1570 MADRUGA AVE, ,Coral Gables,33146,305-663-7200,S,12-Sep,481,351,C,25.70712,-80.28444,891777.3155,499881.4685,,1970/01/01 00:00:00+00,,1970/01/01 00:00:00+00
-8926655.478,2973067.014,115,1.3231E+11,7581,iPrep Academy,10, ,1500 Biscayne Blvd, ,Miami,33132,305-995-1929,S,PK-12,694,605,C,25.78977,-80.18951,922850.5848,530103.5472,,1970/01/01 00:00:00+00,ABREUI,2016/12/27 10:12:07+00
-8952769.124,2936898.408,45,3.07903E+12,4391,Irving & Beatrice Peskoe K-8 Center,5, ,29035 SW 144TH AVE, ,Miami-Dade,33033,305-242-8340,E,PK-8,867,834,S,25.49687,-80.4241,846124.7177,423240.7703,,1970/01/01 00:00:00+00,ABREUI,2016/12/14 14:38:50+00
-8927834.437,2978240.26,27,1.3113E+11,7005,iTech@Thomas A. Edison Education Center,6, ,6101 NW 2ND AVE, ,Miami,33127,305-754-4683,S,9,978,198,C,25.83161,-80.20011,919273.2237,545288.2505,,1970/01/01 00:00:00+00,ABREUI,2016/12/29 09:48:24+00
-8946348.033,2974201.357,315,3.53029E+12,9411,ITS Annex Warehouse,, ,2740 NW 104 COURT, ,Doral,33172,305-995-3331,A, ,0,0, ,25.79895,-80.36641,864625.3749,533118.9999,,1970/01/01 00:00:00+00,ABREUI,2016/12/14 13:37:44+00
-8938622.579,2979635.496,286,4.3012E+11,481,J.W. Johnson Elementary/James H. Bright Elementary,3, ,735 W 23RD ST, ,Hialeah,33010,305-883-1357,E,PK-5,848,616,N,25.84289,-80.29701,887373.7377,549206.2056,,1970/01/01 00:00:00+00,ABREUI,2017/01/09 10:56:40+00
-8953417.146,2953331.792,159,3.05922E+12,2151,Jack D. Gordon  Elementary,8, ,14600 COUNTRY WALK DR, ,Miami-Dade,33186,305-234-4805,E,PK-5,1213,1063,S,25.63004,-80.42992,843996.7712,471633.3443,,1970/01/01 00:00:00+00,ABREUI,2016/12/14 14:40:49+00
-8952560.051,2952446.638,160,3.05927E+12,2151,Jack D. Gordon Elementary Manatee PLC-T,8, ,15551 SW 142ND AVE, ,Miami-Dade,33186,305-234-4863,PLC,PK-1,0,0,S,25.62287,-80.42222,846544.9592,469038.6622,,1970/01/01 00:00:00+00,ABREUI,2016/12/14 14:41:17+00
-8949471.32,2953190.083,232,3.05924E+12,2151,Jack D. Gordon Elementary Panthers PLC-S,8, ,15001 SW 127TH AVE, ,Miami-Dade,33186,305-234-4855,PLC,PK-1,0,0,S,25.62889,-80.39447,855677.5178,471268.0257,,1970/01/01 00:00:00+00,ABREUI,2016/12/14 14:41:41+00
-8939240.574,2979874.699,374,4.3012E+11,481,James H. Bright Elementary/J.W. Johnson Elementary,3, ,2530 W 10TH AVE, ,Hialeah,33010,305-885-1683,E,PK-5,848,616,N,25.84482,-80.30256,885544.1008,549899.377,,1970/01/01 00:00:00+00,ABREUI,2016/12/14 14:45:20+00
-8935921.557,2989326.585,5,3.42117E+12,8101,Jan Mann Opportunity School,, ,16101 NW 44TH CT, ,Miami Gardens,33054,305-625-0855,ALT,12-Jun,369,131,N,25.92121,-80.27275,895196.3663,577717.9778,,1970/01/01 00:00:00+00,ABREUI,2016/12/14 14:46:48+00
-8953783.672,2964011.152,143,3.04921E+12,4691,Jane S. Roberts K-8 Center,9, ,14850 COTTONWOOD CIR, ,Miami-Dade,33185,305-220-8254,E,PK-8,1133,840,S,25.7165,-80.4332,842777.2438,503053.9086,,1970/01/01 00:00:00+00,ABREUI,2016/12/14 14:47:27+00
-8928420.769,2979907.304,216,1.3112E+11,3021,Jesse J. McCrary Jr. Elementary,5, ,514 NW 77TH ST, ,Miami,33150,305-754-7531,E,PK-5,718,612,C,25.84509,-80.20537,917511.0648,550176.6517,,1970/01/01 00:00:00+00,ABREUI,2016/12/14 14:48:37+00
-8951497.365,2968125.745,201,3.04911E+12,2341,Joe Hall Elementary,8, ,1901 SW 134TH AVE, ,Miami-Dade,33175,305-223-9823,E,PK-5,653,557,S,25.7498,-80.41268,849485.495,515185.1536,,1970/01/01 00:00:00+00,ABREUI,2016/12/21 11:14:31+00
-8939302.708,2992174.734,81,3.02001E+12,2181,Joella C. Good Elementary,8, ,6350 NW 188TH TER, ,Miami-Dade,33015,305-625-2008,E,PK-5,999,946,N,25.94422,-80.30313,885168.6103,586026.8374,,1970/01/01 00:00:00+00,ABREUI,2016/12/21 11:15:12+00
-8955772.246,2963536.32,364,3.04929E+12,7121,John A. Ferguson Senior High,6, ,15900 SW 56TH ST, ,Miami-Dade,33193,305-408-2700,S,12-Sep,3778,4208,S,25.71266,-80.45107,836901.5418,501632.2912,,1970/01/01 00:00:00+00,ABREUI,2016/12/21 11:15:56+00
-8925443.632,2990390.21,20,3.02208E+12,6301,John F. Kennedy Middle,4, ,1075 NE 167TH ST, ,Miami-Dade,33162,305-947-1451,M,8-Jun,1346,1137,N,25.92981,-80.17862,926114.4453,581024.1527,,1970/01/01 00:00:00+00,ABREUI,2016/12/21 11:19:19+00
-8939639.572,2983738.204,410,4.2036E+11,1481,John G. Dupuis Elementary,7, ,1150 W 59TH PL, ,Hialeah,33012,305-821-6361,E,PK-5,739,518,N,25.87605,-80.30615,884305.2912,561244.4863,,1970/01/01 00:00:00+00,ABREUI,2016/12/21 11:19:55+00
-8946157.033,2976868.181,62,3.5302E+12,5101,John I. Smith Elementary PLC-A1,7, ,10415 NW 52ND ST, ,Doral,33178,305-406-0220,PLC,PK,0,0,C,25.82051,-80.36469,865152.0581,540960.3511,,1970/01/01 00:00:00+00,ABREUI,2016/12/21 11:21:43+00
-8947422.549,2976707.277,428,3.53019E+12,5101,John I. Smith K-8 (2nd Floor),7,Former Doral Middle,5005 NW 112TH AVE, ,Doral,33178,305-406-0220,M,K-8,1355,1579,C,25.81921,-80.37606,861414.5756,540469.5441,,1970/01/01 00:00:00+00,ABREUI,2018/11/09 15:36:45+00
-8946157.033,2976868.181,63,3.5302E+12,5101,John I. Smith K-8 Center,7, ,10415 NW 52ND ST, ,Doral,33178,305-406-0220,E,PK-5,1355,1579,C,25.82051,-80.36469,865152.0581,540960.3511,,1970/01/01 00:00:00+00,ABREUI,2016/12/21 11:23:07+00
-8955427.208,2953728.18,167,3.0592E+12,6771,Jorge Mas Canosa Middle,7, ,15735 SW 144TH ST, ,Miami-Dade,33196,305-252-5900,M,8-Jun,2009,1914,S,25.63325,-80.44797,838042.5517,472774.9579,,1970/01/01 00:00:00+00,ABREUI,2016/12/21 11:25:12+00
-8928234.708,2975061.834,23,1.31251E+11,6361,Jose De Diego Middle,2, ,3100 NW 5TH AVE, ,Miami,33127,305-573-7229,M,8-Jun,1066,643,C,25.80591,-80.20369,918147.0175,535939.1773,,1970/01/01 00:00:00+00,ABREUI,2016/12/21 11:33:19+00
-8942354.047,2983588.954,86,4.2034E+11,7291,Jose Marti Mathematics & Science Technology Academy,9, ,5701 W 24TH AVE, ,Hialeah,33016,305-557-5931,S,11-Jun,1083,738,N,25.87485,-80.33053,876289.6808,560764.3987,,1970/01/01 00:00:00+00,ABREUI,2017/01/10 13:50:19+00
-8932334.98,2975120.415,294,3.03128E+12,8141,Juvenile Justice Center,, ,3300 NW 27TH AVE, ,Miami-Dade,33142,305-638-5054,ALT,12-Jun,256,84,AC,25.80638,-80.24054,906027.5886,536039.7464,,1970/01/01 00:00:00+00,ABREUI,2016/12/21 11:48:50+00
-8931130.541,2976349.442,46,3.03122E+12,4401,Kelsey L. Pharr Elementary,6, ,2000 NW 46TH ST, ,Miami-Dade,33142,305-633-0429,E,PK-5,388,315,C,25.81632,-80.22971,909566.1632,539672.9455,,1970/01/01 00:00:00+00,ABREUI,2016/12/21 11:49:49+00
-8946322.106,2959889.409,287,3.05005E+12,2641,Kendale Elementary,9, ,10693 SW 93RD ST, ,Miami-Dade,33176,305-274-2735,E,PK-5,724,531,S,25.68314,-80.36618,864904.2367,491028.1166,,1970/01/01 00:00:00+00,ABREUI,2016/12/21 11:50:28+00
-8952950.001,2961021.917,54,3.04934E+12,2651,Kendale Lakes Elementary,10, ,8000 SW 142ND AVE, ,Miami-Dade,33183,305-385-2575,E,PK-5,942,726,S,25.69231,-80.42572,845281.1874,494270.6562,,1970/01/01 00:00:00+00,,1970/01/01 00:00:00+00
-8957481.194,2959310.041,442,3.05906E+12,3031,Kendall Square K-8 Center,, ,9325 SW 169TH PLACE, ,Miami-Dade,33196,305-382-6830,E,K-8,0,41,S,25.67845,-80.46642,831897.1237,489177.6021,T0140179,2018/09/28 16:23:26+00,T0140179,2018/09/28 16:23:26+00
-8932641.617,2971934.3,55,1.3133E+11,2661,Kensington Park Elementary,5, ,711 NW 30TH AVE, ,Miami,33125,305-649-2811,E,PK-5,1424,1070,C,25.78061,-80.24328,905175.1547,526668.1209,,1970/01/01 00:00:00+00,ABREUI,2016/12/21 11:52:20+00
-8932676.563,2972173.649,56,1.3133E+11,2661,Kensington Park PLC-D,5, ,1025 NW 30TH AVE, ,Miami,33125,305-649-4301,PLC,PK,0,0,C,25.78255,-80.2436,905067.8098,527371.2234,,1970/01/01 00:00:00+00,ABREUI,2017/01/10 10:41:09+00
-8941581.318,2960031.052,57,3.05003E+12,2701,Kenwood K-8 Center,7, ,9300 SW 79TH AVE, ,Miami-Dade,33156,305-271-5061,E,PK-8,1155,1032,S,25.68428,-80.32359,878927.769,491514.3916,,1970/01/01 00:00:00+00,ABREUI,2017/01/10 10:45:04+00
-8924124.22,2960836.983,58,2.45205E+12,2741,Key Biscayne K-8 Center,9, ,150 W MCINTYRE ST, ,Key Biscayne,33149,305-361-5418,E,PK-8,1230,1352,C,25.69081,-80.16677,930560.0205,494180.6521,,1970/01/01 00:00:00+00,ABREUI,2016/12/21 11:58:35+00
-8935083.568,2970995.679,59,1.4105E+11,2781,Kinloch Park Elementary,5, ,4275 NW 1ST ST, ,Miami,33126,305-445-1351,E,PK-5,818,688,C,25.77302,-80.26522,897971.8123,523867.5626,,1970/01/01 00:00:00+00,ABREUI,2016/12/21 12:02:04+00
-8935262.151,2971109.808,21,1.4105E+11,6331,Kinloch Park Middle,3, ,4340 NW 3RD ST, ,Miami,33126,305-445-5467,M,8-Jun,1308,1072,C,25.77394,-80.26682,897441.9998,524200.1875,,1970/01/01 00:00:00+00,ABREUI,2016/12/21 12:05:06+00
-8937303.345,2991672.751,208,3.02106E+12,2801,Lake Stevens Elementary,7, ,5101 NW 183RD ST, ,Miami-Dade,33055,305-625-6536,E,PK-5,476,235,N,25.94017,-80.28517,891078.8736,584584.7792,,1970/01/01 00:00:00+00,ABREUI,2016/12/21 12:05:42+00
-8936978.555,2991794.722,22,3.02106E+12,6351,Lake Stevens Middle,2, ,18484 NW 48TH PL, ,Miami-Dade,33055,305-620-1294,M,8-Jun,1043,619,N,25.94115,-80.28224,892035.7417,584948.1469,,1970/01/01 00:00:00+00,ABREUI,2016/12/21 12:06:20+00
-8930073.581,2984155.57,209,3.02135E+12,2821,Lakeview Elementary,6, ,1290 NW 115TH ST, ,Miami-Dade,33167,305-757-1535,E,PK-5,572,416,C,25.87943,-80.22021,912553.6415,562629.1772,,1970/01/01 00:00:00+00,ABREUI,2016/12/21 12:08:40+00
-8955536.58,2964472.757,173,1.3136E+11,6921,Lamar Louise Curry Middle,7, ,15750 SW 47TH ST, ,Miami-Dade,33185,305-222-2775,M,8-Jun,1040,1108,S,25.72024,-80.44895,837587.0878,504389.779,,1970/01/01 00:00:00+00,ABREUI,2016/12/21 12:13:19+00
-8959438.557,2932723.524,214,1.07813E+12,2941,Laura C. Saunders Elementary,3, ,505 SW 8TH ST, ,Homestead,33030,305-247-3933,E,PK-5,837,643,S,25.46301,-80.484,826410.4731,410855.1731,,1970/01/01 00:00:00+00,ABREUI,2016/12/21 12:14:36+00
-8927623.558,2971521.573,263,1.01071E+11,7033,Law Enforcement Officers Memorial Senior High,7, ,300 NW 2ND AVE, ,Miami,33128,305-371-0400,S,12-Sep,320,346,C,25.77727,-80.1982,920016.6648,525542.4004,,1970/01/01 00:00:00+00,ABREUI,2016/12/21 12:28:42+00
-8942695.858,2993128.224,340,3.02003E+12,6161,Lawton Chiles Middle,6, ,8190 NW 197TH ST, ,Miami-Dade,33015,305-816-9101,M,8-Jun,1301,846,N,25.95192,-80.3336,875137.6496,588774.0881,,1970/01/01 00:00:00+00,ABREUI,2016/12/21 12:31:47+00
-8945819.882,2956362.32,210,3.05017E+12,2881,Leewood K-8 Center,8, ,10343 SW 124TH ST, ,Miami-Dade,33176,305-233-7430,E,PK-8,1017,780,S,25.65458,-80.36166,866440.1574,480655.9435,,1970/01/01 00:00:00+00,ABREUI,2016/12/21 12:43:31+00
-8953906.666,2937177.161,212,3.07904E+12,2901,Leisure City K-8 Center,5, ,14950 SW 288TH ST, ,Miami-Dade,33033,305-247-5431,E,PK-8,1213,956,S,25.49913,-80.43431,842750.6157,424047.7624,,1970/01/01 00:00:00+00,ABREUI,2016/12/21 12:58:21+00
-8929710.084,2976659.603,192,1.3123E+11,81,Lenora B. Smith Elementary,4, ,4700 NW 12TH AVE, ,Miami,33127,305-635-0873,E,PK-5,754,370,C,25.81883,-80.21695,913758.5577,540609.349,,1970/01/01 00:00:00+00,ABREUI,2016/12/22 07:52:32+00
-8930954.724,2979204.073,215,3.0311E+12,2981,Liberty City Elementary,2, ,1855 NW 71ST ST, ,Miami-Dade,33147,305-691-8532,E,PK-5,938,334,C,25.8394,-80.22813,910036.5071,548065.5366,,1970/01/01 00:00:00+00,ABREUI,2016/12/22 07:58:42+00
-8931059.327,2979699.011,398,3.0311E+12,1681,Lillie C. Evans K-8 Center,5, ,1895 NW 75TH ST, ,Miami-Dade,33147,305-691-4973,E,PK-8,649,394,C,25.8434,-80.22907,909718.9074,549518.1436,,1970/01/01 00:00:00+00,ABREUI,2016/12/22 08:01:38+00
-8927194.625,2987549.209,213,3.02219E+12,2911,Linda Lentin K-8 Center,2, ,14312 NE 2ND CT, ,Miami-Dade,33161,305-891-4011,E,PK-8,1063,842,N,25.90685,-80.19435,920996.0005,572648.8124,,1970/01/01 00:00:00+00,,1970/01/01 00:00:00+00
-8928672.109,2973718.969,3,1.3135E+11,8005,Lindsey Hopkins Technical College,, ,750 NW 20TH ST, ,Miami,33127,305-324-6070,O, ,0,0,C,25.79504,-80.20763,916878.0296,531983.8854,,1970/01/01 00:00:00+00,ABREUI,2016/12/22 08:14:38+00
-8933113.436,2976956.228,217,3.03121E+12,3041,Lorah Park Elementary,6, ,5160 NW 31ST AVE, ,Miami-Dade,33142,305-633-1424,E,PK-5,546,462,C,25.82122,-80.24752,903696.0056,541422.459,,1970/01/01 00:00:00+00,ABREUI,2016/12/22 08:26:04+00
-8939041.991,2962249.332,176,9.40361E+11,3061,Ludlam Elementary,8, ,6639 SW 74TH ST, ,South Miami,33143,305-667-5551,E,PK-5,624,368,C,25.70224,-80.30078,886405.8196,498080.0472,,1970/01/01 00:00:00+00,ABREUI,2016/12/22 08:27:30+00
-8940688.76,2983911.939,131,4.2035E+11,3421,M.A. Milam K-8 Center,6, ,6020 W 16TH AVE, ,Hialeah,33012,305-822-0301,E,PK-8,1040,983,N,25.87746,-80.31557,881203.5988,561738.5985,,1970/01/01 00:00:00+00,ABREUI,2016/12/22 08:30:13+00
-8924990.675,2994826.321,285,3.01232E+12,2581,Madie Ives Elementary PLC-M,6, ,1351 IVES DAIRY RD, ,Miami-Dade,33179,305-651-3155,PLC,PK,0,0,N,25.96564,-80.17455,927369.6735,594057.0388,,1970/01/01 00:00:00+00,ABREUI,2016/12/22 08:51:09+00
-8925004.05,2995019.244,433,3.01232E+12,2581,Madie Ives K-8 Preparatory Academy,6, ,20770 NE 14TH AVE, ,Miami-Dade,33179,305-651-3155,E,PK-6,1167,729,N,25.9672,-80.17468,927326.624,594623.1254,ABREUI,2018/05/31 09:31:27+00,ABREUI,2018/05/31 09:31:27+00
-8933754.807,2980807.653,24,3.03109E+12,6391,Madison Middle,1, ,3400 NW 87TH ST, ,Miami-Dade,33147,305-836-2610,M,8-Jun,803,499,C,25.85236,-80.25328,901736.3822,552729.8239,,1970/01/01 00:00:00+00,ABREUI,2016/12/22 08:52:34+00
-8938451.35,2980672.042,227,4.3012E+11,5711,Mae M. Walters Elementary,7, ,650 W 33RD ST, ,Hialeah,33012,305-822-4600,E,PK-5,775,517,N,25.85127,-80.29547,887863.3187,552254.7288,,1970/01/01 00:00:00+00,ABREUI,2016/12/22 08:53:12+00
-8946943.93,2960980.617,318,3.03111E+12,9221,Maintenance Operations Plant Operations Center,, ,11035 SW 84 STREET, ,Miami-Dade,33173,305-995-1550,A, ,0,0, ,25.69197,-80.37176,863049.3089,494229.9805,,1970/01/01 00:00:00+00,ABREUI,2016/12/22 08:54:00+00
-8949053.959,2938221.18,191,3.06936E+12,73,Mandarin Lakes K-8 Academy,2, ,12225 SW 280TH ST, ,Miami-Dade,33032,305-257-0377,E,KG-8,1508,1034,S,25.50759,-80.39072,857115.1756,427187.6862,,1970/01/01 00:00:00+00,ABREUI,2016/12/22 08:54:35+00
-8924092.388,2966813.31,369,3.04217E+12,7161,Maritime & Science Technology Academy,10, ,3979 RICKENBACKER CSWY, ,Miami-Dade,33149,305-365-6278,S,12-Aug,846,1157,C,25.73918,-80.16649,930543.2138,511761.8315,,1970/01/01 00:00:00+00,ABREUI,2016/12/22 08:55:32+00
-8922401.408,2963875.108,327,3.04232E+12,9485,Marjory Stoneman Douglas Biscayne Nature Center ,, ,6767 Crandon Blvd, ,Miami-Dade,33149,305-361-6767,O, ,0,0, ,25.7154,-80.15129,935599.3587,503151.2487,,1970/01/01 00:00:00+00,ABREUI,2016/12/22 12:17:52+00
-8948906.517,2970209.777,141,3.04901E+12,1371,Marjory Stoneman Douglas Elementary,9, Main Campus,11901 SW 2ND ST, ,Miami-Dade,33184,305-226-4356,E,PK-5,1321,941,S,25.76666,-80.3894,857117.8367,521348.1716,,1970/01/01 00:00:00+00,ABREUI,2017/01/09 12:46:58+00
-8951132.779,2971056.435,407,3.03952E+12,1371,Marjory Stoneman Douglas PLC-F,9, ,650 NW 132ND AVE, ,Miami-Dade,33184,305-222-4822,PLC,PK-KG,0,0,S,25.77351,-80.40939,850524.9072,523807.5757,,1970/01/01 00:00:00+00,ABREUI,2016/12/22 10:05:43+00
-8921085.47,2987969.181,307,6.2222E+11,7031,MAST @ FIU Biscayne Bay Campus,10,Biscayne Bay Campus,3000 NE 151ST STREET, ,North Miami,33181,305-919-4450,S,9,0,219,N,25.91024,-80.13947,939028.4542,573996.8816,,1970/01/01 00:00:00+00,ABREUI,2016/12/22 08:31:50+00
-8939994.175,2970620.496,329,1.4002E+11,9134,Materials Control Center,, ,7040 W Flagler St, ,Miami,33144,786-275-0775,A, ,0,0, ,25.76998,-80.30933,883460.3279,522685.9009,,1970/01/01 00:00:00+00,ABREUI,2016/12/22 10:08:22+00
-8930803.854,2974988.024,197,1.31271E+11,111,Maya Angelou Elementary,5, ,1850 NW 32ND ST, ,Miami,33142,305-636-3480,E,PK-5,713,725,C,25.80531,-80.22677,910555.1251,535676.9372,,1970/01/01 00:00:00+00,,1970/01/01 00:00:00+00
-8927902.665,2978268.529,332,1.31131E+11,9913,MDCPS Police Center,, ,6100 NW 2ND AVE, ,Miami,33127,305-757-7708,A, ,0,0, ,25.83184,-80.20071,919071.1147,545370.1021,,1970/01/01 00:00:00+00,ABREUI,2016/12/22 08:32:34+00
-8932674.051,2976093.472,321,3.03121E+12,9938,MDCPS Police General Investigations Unit,, ,2950 NW 43 TERRACE, ,Miami-Dade,33142,305-995-4100,A, ,0,0, ,25.81425,-80.24358,905009.0246,538894.126,,1970/01/01 00:00:00+00,,1970/01/01 00:00:00+00
-8938842.187,2981964.796,181,4.3001E+11,3141,Meadowlane Elementary,8, ,4280 W 8TH AVE, ,Hialeah,33012,305-822-0660,E,PK-5,998,872,N,25.86172,-80.29898,886688.3755,556046.917,,1970/01/01 00:00:00+00,ABREUI,2016/12/22 10:14:11+00
-8959056.976,2935110.805,370,1.07812E+12,7171,Medical Academy For Science And Technology,10, ,1220 NW 1ST AVENUE, ,Homestead,33030,305257-4500,S,12-Sep,665,524,S,25.48237,-80.48058,827513.9985,417895.9654,,1970/01/01 00:00:00+00,ABREUI,2017/01/11 14:40:04+00
-8932858.48,2975282.727,182,3.03128E+12,3181,Melrose Elementary,8, ,3050 NW 35TH ST, ,Miami-Dade,33142,305-635-8676,E,PK-5,608,450,C,25.80769,-80.24524,904477.6496,536507.9497,,1970/01/01 00:00:00+00,ABREUI,2016/12/22 10:25:23+00
-8954443.238,2967421.281,221,3.04909E+12,6052,Miami Arts Studio 6-12 at Zelda Glazer,9, ,15015 SW 24TH ST, ,Miami-Dade,33185,305-485-2323,S,"PK,6-9",1495,1633,S,25.7441,-80.43914,840783.8509,513075.5357,,1970/01/01 00:00:00+00,ABREUI,2017/01/11 10:02:15+00
-8920395.311,2972651.804,15,2.3234E+11,7202,Miami Beach Adult & Community Education Center,, ,1424 Drexel Ave, ,Miami Beach,33139,305-531-0451,O, ,0,0,AC,25.78641,-80.13327,941363.3449,529000.701,,1970/01/01 00:00:00+00,ABREUI,2017/01/11 14:41:56+00
-8920377.579,2974176.516,372,2.3227E+11,7201,Miami Beach Senior High,4, ,2231 PRAIRIE AVE, ,Miami Beach,33139,305-532-4515,S,12-Sep,2233,2429,N,25.79875,-80.13311,941386.249,533483.4377,,1970/01/01 00:00:00+00,ABREUI,2016/12/22 10:45:48+00
-8934210.442,2991765.156,142,3.42104E+12,7231,Miami Carol City Senior High,1, ,3301 Miami Gardens Dr, ,Miami Gardens,33056,305-621-5681,S,12-Sep,2686,1411,N,25.94091,-80.25738,900208.0765,584906.896,,1970/01/01 00:00:00+00,ABREUI,2016/12/22 10:47:56+00
-8930973.936,2981962.469,83,3.03103E+12,7251,Miami Central Senior High,2, ,1781 NW 95TH ST, ,Miami-Dade,33147,305-696-4161,S,12-Sep,2320,1855,C,25.8617,-80.2283,909932.1392,556170.3925,,1970/01/01 00:00:00+00,ABREUI,2016/12/22 10:50:56+00
-8943465.754,2968803.055,85,3.04009E+12,7272,Miami Coral Park Adult Education,, ,8865 SW 16TH ST, ,Miami-Dade,33165,305-226-6565,O, ,0,0, ,25.75528,-80.34052,873223.7992,517289.1936,,1970/01/01 00:00:00+00,ABREUI,2016/12/22 10:53:15+00
-8943286.266,2968806.775,84,3.04009E+12,7271,Miami Coral Park Senior High,3, ,8865 SW 16TH ST, ,Miami-Dade,33165,305-226-6565,S,12-Sep,3374,2674,C,25.75531,-80.3389,873754.4414,517302.79,,1970/01/01 00:00:00+00,ABREUI,2016/12/22 10:56:40+00
-8928367.294,2978265.074,87,1.31131E+11,7301,Miami Edison Senior High,2, ,6161 NW 5TH CT, ,Miami,33127,305-751-7337,S,12-Sep,1622,919,C,25.83181,-80.2049,917698.2505,545351.6248,,1970/01/01 00:00:00+00,ABREUI,2016/12/22 10:58:18+00
-8936206.698,2992931.405,184,3.42105E+12,3241,Miami Gardens Elementary,7, ,4444 NW 195TH ST, ,Miami Gardens,33055,305-625-5321,E,PK-5,430,264,N,25.95033,-80.27531,894295.894,588298.0157,,1970/01/01 00:00:00+00,ABREUI,2016/12/22 10:59:22+00
-8947892.274,2950138.03,185,3.05031E+12,3261,Miami Heights Elementary,5, ,17661 SW 117TH AVE, ,Miami-Dade,33177,305-238-3602,E,PK-5,1425,1029,S,25.60417,-80.38028,860393.25,462304.3746,,1970/01/01 00:00:00+00,,1970/01/01 00:00:00+00
-8930733.301,2975602.984,89,1.3122E+11,7342,Miami Jackson Adult Education,, ,1751 NW 36TH ST, ,Miami,33142,305-634-2621,O, ,0,0,C,25.81028,-80.22614,910753.014,537485.7844,,1970/01/01 00:00:00+00,ABREUI,2016/12/22 11:13:58+00
-8930733.301,2975602.984,88,1.3122E+11,7341,Miami Jackson Senior High,1, ,1751 NW 36TH ST, ,Miami,33142,305-634-2621,S,12-Sep,2335,1571,C,25.81028,-80.22614,910753.014,537485.7844,,1970/01/01 00:00:00+00,ABREUI,2016/12/22 11:13:07+00
-8944608.689,2958278.256,91,3.05009E+12,7361,Miami Killian Senior High,3, ,10655 SW 97TH AVE, ,Miami-Dade,33176,305-271-3311,S,12-Sep,3421,2220,S,25.67009,-80.35078,869996.6648,486311.8004,,1970/01/01 00:00:00+00,ABREUI,2016/12/22 11:14:27+00
-8938393.505,2988710.637,297,3.22013E+12,8901,Miami Lakes Educational Center and Technical College,, ,5780 NW 158TH ST, ,Miami Lakes,33014,305-557-1100,O, ,0,0,N,25.91624,-80.29495,887907.3571,575869.2607,,1970/01/01 00:00:00+00,ABREUI,2016/12/22 11:25:17+00
-8938291.66,2988686.251,74,3.22013E+12,7391,Miami Lakes Educational Center Senior High,9, ,5780 NW 158TH ST, ,Miami Lakes,33014,305-557-1100,S,12-Sep,1177,1509,N,25.91604,-80.29404,888208.4651,575799.2616,,1970/01/01 00:00:00+00,ABREUI,2016/12/22 11:25:00+00
-8940133.957,2987068.861,187,3.22023E+12,3281,Miami Lakes Elementary PLC-L,6, ,14250 NW 67TH AVE, ,Miami Lakes,33014,305-822-7757,PLC,PK,0,0,N,25.90297,-80.3106,882793.6015,571020.2096,,1970/01/01 00:00:00+00,ABREUI,2016/11/15 13:54:41+00
-8939947.139,2987077.485,186,3.22023E+12,3281,Miami Lakes K-8 Center,6, ,14250 NW 67TH AVE, ,Miami Lakes,33014,305-822-7757,E,PK-8,1364,1355,N,25.90304,-80.30891,883345.154,571048.4402,,1970/01/01 00:00:00+00,ABREUI,2016/12/22 12:42:25+00
-8939600.143,2988974.679,122,3.22013E+12,6501,Miami Lakes Middle,6, ,6425 MIAMI LAKEWAY N, ,Miami Lakes,33014,305-557-3900,M,8-Jun,1029,1101,N,25.91837,-80.30579,884340.3561,576625.657,,1970/01/01 00:00:00+00,ABREUI,2016/12/27 08:43:10+00
-8952084.941,2939926.534,120,3.06934E+12,7631,Miami MacArthur South SH,, ,13990 SW 264TH ST, ,Miami-Dade,33032,305-258-7200,ALT,12-Jun,714,81,S,25.52142,-80.41794,848112.9602,432172.2442,,1970/01/01 00:00:00+00,ABREUI,2016/12/27 08:43:50+00
-8929953.53,2993053.091,73,3.42102E+12,7381,Miami Norland Senior High,3, ,1193 NW 193rd ST, ,Miami Gardens,33169,305-653-1416,S,12-Sep,2219,1744,N,25.95132,-80.21914,912752.5888,588761.4079,,1970/01/01 00:00:00+00,ABREUI,2016/12/27 08:57:46+00
-8929372.526,2979151.938,75,1.3114E+11,7411,Miami Northwestern Senior High,2, ,1100 NW 71ST ST, ,Miami,33150,305-836-0991,S,12-Sep,2339,1667,C,25.83898,-80.21392,914712.3259,547940.0329,,1970/01/01 00:00:00+00,ABREUI,2016/12/27 09:01:51+00
-8940703.605,2957130.202,77,2.05011E+12,7432,Miami Palmetto Adult Education,, ,7460 SW 118TH ST, ,Pinecrest,33156,305-235-1360,O, ,0,0, ,25.6608,-80.31571,881568.6451,482991.505,,1970/01/01 00:00:00+00,ABREUI,2016/12/27 09:04:01+00
-8940703.605,2957130.202,76,3.05011E+12,7431,Miami Palmetto Senior High,5, ,7460 SW 118TH ST, ,Pinecrest,33156,305-235-1360,S,12-Sep,3017,2626,S,25.6608,-80.31571,881568.6451,482991.505,,1970/01/01 00:00:00+00,ABREUI,2016/12/27 09:06:05+00
-8931824.876,2982824.243,188,3.02134E+12,3301,Miami Park Elementary,3, ,2225 NW 103RD ST, ,Miami-Dade,33147,305-691-6361,E,PK-5,776,258,C,25.86867,-80.23595,907403.6208,558687.5941,,1970/01/01 00:00:00+00,ABREUI,2016/12/27 09:08:44+00
-8931825.333,2970739.326,79,1.4103E+11,7462,Miami Senior Adult Education,, ,2450 SW 1ST ST, ,Miami,33135,305-649-9800,O, ,0,0, ,25.77094,-80.23595,907608.5793,523168.5953,,1970/01/01 00:00:00+00,ABREUI,2016/12/27 09:09:23+00
-8931825.333,2970739.326,78,1.4103E+11,7461,Miami Senior High,4, ,2450 SW 1ST ST, ,Miami,33135,305-649-9800,S,12-Sep,2613,2987,C,25.77094,-80.23595,907608.5793,523168.5953,,1970/01/01 00:00:00+00,ABREUI,2016/12/27 09:09:29+00
-8926403.567,2983035.646,129,1.12231E+12,3341,Miami Shores Elementary,5, ,10351 NE 5TH AVE, ,Miami Shores,33138,305-758-5525,E,PK-5,750,770,C,25.87037,-80.18724,923414.1353,559404.8329,,1970/01/01 00:00:00+00,ABREUI,2016/12/27 09:11:41+00
-8947437.564,2947952.69,97,3.06006E+12,7731,Miami Southridge Senior High,2, ,19355 SW 114TH AVE, ,Miami-Dade,33157,305-238-6110,S,12-Sep,2732,2045,S,25.58646,-80.3762,861769.6606,455875.9025,,1970/01/01 00:00:00+00,ABREUI,2016/12/27 09:15:41+00
-8938362,2978088.398,169,5.3013E+11,7512,Miami Springs Adult Education,, ,751 Dove Ave, ,Miami Springs,33166,305-885-3585,O, ,0,0, ,25.83038,-80.29467,888168.0289,544663.9013,,1970/01/01 00:00:00+00,ABREUI,2016/12/27 09:52:41+00
-8937238.269,2977163.436,130,5.3119E+11,3381,Miami Springs Elementary,9, ,51 PARK ST, ,Miami Springs,33166,305-888-4558,E,PK-5,602,402,C,25.8229,-80.28457,891503.3125,541963.4384,,1970/01/01 00:00:00+00,,1970/01/01 00:00:00+00
-8936008.252,2976172.52,123,5.3119E+11,6521,Miami Springs Middle,2, ,150 S ROYAL POINCIANA BLVD, ,Miami Springs,33166,305-888-6457,M,8-Jun,1607,1197,C,25.81489,-80.27353,895154.1877,539070.938,,1970/01/01 00:00:00+00,,1970/01/01 00:00:00+00
-8938362,2978088.398,80,5.3013E+11,7511,Miami Springs Senior High,4, ,751 Dove Ave, ,Miami Springs,33166,305-885-3585,S,12-Sep,2105,1676,C,25.83038,-80.29467,888168.0289,544663.9013,,1970/01/01 00:00:00+00,ABREUI,2016/12/27 09:53:32+00
-8950555.965,2962165.402,111,3.04926E+12,7532,Miami Sunset Adult Education,, ,13125 SW 72ND ST, ,Miami-Dade,33183,305-365-4255,O, ,0,0, ,25.70156,-80.40422,852348.1958,497666.1968,,1970/01/01 00:00:00+00,ABREUI,2016/12/27 10:06:23+00
-8950555.965,2962165.402,110,3.04926E+12,7531,Miami Sunset Senior High,3, ,13125 SW 72ND ST, ,Miami-Dade,33183,305-385-4255,S,12-Sep,2821,1605,S,25.70156,-80.40422,852348.1958,497666.1968,,1970/01/01 00:00:00+00,ABREUI,2016/12/27 10:07:28+00
-8926759.373,2973066.667,436,1.3231E+11,7001,Miami-Dade Online Academy,8, ,1501 NE 2ND AVENUE #336,336,Miami,33132,305-995-1257,S,K-12,0,300,AC,25.78977,-80.19044,922543.4829,530100.6365,ABREUI,2018/05/31 09:32:49+00,ABREUI,2018/05/31 09:32:49+00
-8926327.394,2978872.937,133,1.32181E+11,3501,Morningside K-8 Center,6, ,6620 NE 5TH AVE, ,Miami,33138,305-758-6741,E,PK-7,666,491,C,25.83672,-80.18656,923714.875,547174.8752,,1970/01/01 00:00:00+00,,1970/01/01 00:00:00+00
-8933637.574,2990963.265,135,3.42109E+12,3581,Myrtle Grove K-8 Center,5, ,3125 NW 176TH ST, ,Miami Gardens,33056,305-624-8431,E,PK-7,522,625,N,25.93443,-80.25223,901912.7076,582561.9857,,1970/01/01 00:00:00+00,ABREUI,2016/12/27 10:15:27+00
-8932270.738,2987191.568,252,8.2122E+11,5971,Nathan B. Young Elementary,5, ,14120 NW 24TH AVE, ,Opa-Locka,33054,305-685-7204,E,PK-5,482,322,N,25.90396,-80.23995,906012.2624,571508.9243,,1970/01/01 00:00:00+00,ABREUI,2016/12/27 10:16:07+00
-8933068.982,2983270.517,325,3.02133E+12,8211,Nathaniel Traz Powell Football Stadium,, ,11380 NW 27TH AVE, ,Miami-Dade,33167,305-688-5490,O, ,0,0, ,25.87227,-80.24712,903721.0754,559977.4652,,1970/01/01 00:00:00+00,ABREUI,2016/12/27 11:19:15+00
-8923974.586,2987383.172,137,6.222E+11,3661,Natural Bridge Elementary,6, ,1650 NE 141ST ST, ,North Miami,33181,305-891-8649,E,PK-5,708,678,N,25.90551,-80.16542,930507.9724,572220.6253,,1970/01/01 00:00:00+00,ABREUI,2016/12/27 10:57:18+00
-8920537.984,2976227.032,124,2.3222E+11,6541,Nautilus Middle,4, ,4301 N Michigan Ave, ,Miami Beach,33140,305-532-3481,M,8-Jun,1048,1039,N,25.81533,-80.13455,940872.4946,539507.76,,1970/01/01 00:00:00+00,ABREUI,2017/01/05 09:59:47+00
-8959041.389,2934143.302,390,1.07813E+12,921,Neva King Cooper Educational Center,4, ,151 NW 5TH ST, ,Homestead,33030,305-247-4307,SPC,PK-12,0,103,S,25.47452,-80.48044,827571.3128,415044.609,,1970/01/01 00:00:00+00,ABREUI,2016/12/27 11:03:36+00
-8927067.137,2971411.438,2,1.01091E+11,7901,New World School of the Arts,8, ,25 NE 2ND ST, ,Miami,33132,305-237-3135,S,12-Sep,420,510,C,25.77638,-80.19321,921663.5625,525228.625,,1970/01/01 00:00:00+00,ABREUI,2016/12/28 12:36:55+00
-8929644.202,2993119.319,138,3.42102E+12,3701,Norland Elementary,6, ,19340 NW 8TH CT, ,Miami Gardens,33169,305-652-6074,E,PK-5,678,651,N,25.95185,-80.21636,913664.5299,588961.3014,,1970/01/01 00:00:00+00,ABREUI,2016/12/27 11:13:27+00
-8930347.385,2993008.177,125,3.42101E+12,6571,Norland Middle,3, ,1235 NW 192ND TER, ,Miami Gardens,33169,305-653-1210,M,8-Jun,1575,935,N,25.95095,-80.22267,911590.7503,588622.6246,,1970/01/01 00:00:00+00,,1970/01/01 00:00:00+00
-8955943.988,2953574.688,231,3.0592E+12,125,Norma Butler Bossard Elementary,8, ,15950 SW 144TH ST, ,Miami-Dade,33196,305-254-5200,E,PK-5,1032,1145,S,25.63201,-80.45262,836514.9035,472316.7924,,1970/01/01 00:00:00+00,ABREUI,2016/12/27 11:15:24+00
-8919271.057,2992239.342,195,3.12211E+12,92,Norman S. Edelcup/Sunny Isles Beach K-8,9, ,201 182ND DR, ,Sunny Isles Beach,33160,305-933-6161,E,PK-8,1733,2123,N,25.94474,-80.12317,944302.4451,586571.853,,1970/01/01 00:00:00+00,ABREUI,2016/12/27 11:21:51+00
-8920105.148,2976120.436,14,2.3222E+11,3741,North Beach Elementary,10, ,4100 PRAIRIE AVE, ,Miami Beach,33140,305-531-7666,E,PK-5,887,1038,N,25.81447,-80.13067,942153.7395,539202.8791,,1970/01/01 00:00:00+00,ABREUI,2016/12/27 11:22:29+00
-8933922.863,2994623.72,144,3.41133E+12,3821,North County K-8 Center,3, ,3250 NW 207TH ST, ,Miami Gardens,33056,305-624-9648,E,PK-8,652,404,N,25.964,-80.25479,901009.2815,593304.0698,,1970/01/01 00:00:00+00,ABREUI,2016/12/27 11:23:31+00
-8931122.765,2988724.831,65,3.42115E+12,5131,North Dade Center For Modern Languages Elementary,9, ,1840 NW 157TH ST, ,Miami Gardens,33054,305-625-3885,E,5-Jan,436,381,N,25.91635,-80.22964,909375.8584,576031.7616,,1970/01/01 00:00:00+00,ABREUI,2017/01/11 08:15:54+00
-8931341.974,2988776.854,126,3.42115E+12,6591,North Dade Center Middle,2, ,1840 NW 157TH ST, ,Miami Gardens,33054,305-624-8415,M,8-Jun,794,712,N,25.91677,-80.23161,908727.6874,576180.7395,,1970/01/01 00:00:00+00,ABREUI,2017/01/11 08:13:41+00
-8937055.964,2990894.256,145,3.02107E+12,3861,North Glade Elementary,6, ,5000 NW 177TH ST, ,Miami-Dade,33055,305-624-3608,E,PK-5,526,302,N,25.93388,-80.28294,891821.6934,582302.9301,,1970/01/01 00:00:00+00,ABREUI,2016/12/27 11:27:44+00
-8935884.797,2981897.084,146,4.3105E+11,3901,North Hialeah Elementary,7, ,4251 E 5TH AVE, ,Hialeah,33013,305-681-4611,E,PK-5,790,512,N,25.86117,-80.27242,895425.9233,555895.4846,,1970/01/01 00:00:00+00,ABREUI,2016/12/27 11:28:26+00
-8925963.87,2986323.19,117,6.223E+11,7592,North Miami Adult Education,, ,13110 NE 8TH AVE, ,North Miami,33161,305-981-6774,O, ,0,0, ,25.89694,-80.1833,924652.8735,569070.3137,,1970/01/01 00:00:00+00,,1970/01/01 00:00:00+00
-8925075.709,2990376.237,112,3.02208E+12,7541,North Miami Beach Senior High,2, ,1247 NE 167TH ST, ,Miami-Dade,33162,305-949-8381,S,12-Sep,2595,1709,N,25.92969,-80.17532,927200.9807,580989.9458,,1970/01/01 00:00:00+00,ABREUI,2016/12/27 11:33:27+00
-8926286.414,2987801.837,147,6.2219E+11,3941,North Miami Elementary,5, ,655 NE 145TH ST, ,North Miami,33161,305-949-0998,E,PK-5,764,468,N,25.90889,-80.18619,923673.3624,573407.3384,,1970/01/01 00:00:00+00,ABREUI,2016/12/27 11:36:02+00
-8926107.182,2986770.262,128,6.2219E+11,6631,North Miami Middle,3, ,700 NE 137TH ST, ,North Miami,33161,305-891-5611,M,8-Jun,1054,980,N,25.90056,-80.18458,924221.4684,570380.827,,1970/01/01 00:00:00+00,ABREUI,2016/11/15 13:52:21+00
-8925963.87,2986323.19,116,6.223E+11,7591,North Miami Senior High,3, ,13110 NE 8TH AVE, ,North Miami,33161,305-891-6590,S,12-Sep,2789,2575,N,25.89694,-80.1833,924652.8735,569070.3136,,1970/01/01 00:00:00+00,ABREUI,2016/12/27 11:42:54+00
-8922115.08,2988740.611,316,6.2216E+11,8231,North Miami Stadium - Ronald L Book Athletic Stadium,, ,2555 NE 151st St, ,North Miami,33160,305-895-9840,O, ,0,0, ,25.91648,-80.14872,935973.343,576242.6229,,1970/01/01 00:00:00+00,ABREUI,2016/12/27 11:47:02+00
-8935426.622,2983601.012,306,4.2132E+11,9571,North Region Office,, ,733 E 57TH ST, ,Hialeah,33013,305-687-6565,A, ,0,0, ,25.87494,-80.2683,896751.5338,560909.0157,,1970/01/01 00:00:00+00,ABREUI,2016/12/27 11:48:01+00
-8938541.284,2985496.085,28,4.2025E+11,3981,North Twin Lakes Elementary,7, ,625 W 74TH PL, ,Hialeah,33014,305-822-0721,E,PK-5,569,487,N,25.89026,-80.29628,887521.6642,566425.6091,,1970/01/01 00:00:00+00,ABREUI,2016/12/27 11:48:52+00
-8930881.947,2993604.281,29,3.42102E+12,4001,Norwood Elementary,5, ,19810 NW 14TH CT, ,Miami Gardens,33169,305-653-0068,E,PK-5,542,522,N,25.95577,-80.22747,910002.4425,590363.3586,,1970/01/01 00:00:00+00,ABREUI,2016/12/27 11:53:50+00
-8926056.006,2989027.586,30,3.02218E+12,4021,Oak Grove Elementary,6, ,15640 NE 8TH AVE, ,Miami-Dade,33162,305-945-1511,E,PK-6,776,557,N,25.9188,-80.18412,924331.3495,577011.3965,,1970/01/01 00:00:00+00,ABREUI,2016/12/27 11:56:18+00
-8922183.913,2992623.885,32,3.02204E+12,4061,Ojus Elementary,8, ,18600 W DIXIE HWY, ,Miami-Dade,33180,305-931-4881,E,KG-5,904,931,N,25.94785,-80.14934,935696.0522,587644.1768,,1970/01/01 00:00:00+00,ABREUI,2016/12/27 12:00:06+00
-8954130.415,2959702.913,281,3.05904E+12,2521,Oliver Hoover Elementary,9, ,9050 HAMMOCKS BLVD, ,Miami-Dade,33196,305-385-4382,E,PK-5,1026,716,S,25.68163,-80.43632,841805.7755,490374.7441,,1970/01/01 00:00:00+00,ABREUI,2016/12/27 12:01:06+00
-8955625.542,2959097.31,282,3.05905E+12,2521,Oliver Hoover Elementary PLC-U,9, ,15700 SW 96TH ST, ,Miami-Dade,33196,305-383-0915,PLC,PK-KG,0,0,S,25.67673,-80.44975,837389.8385,488574.1428,,1970/01/01 00:00:00+00,ABREUI,2016/12/27 12:01:46+00
-8944898.851,2966084.382,34,3.04017E+12,4091,Olympia Heights Elementary,4, ,9797 SW 40TH ST, ,Miami-Dade,33165,305-221-3821,E,PK-5,642,512,S,25.73328,-80.35339,869025.721,509272.8234,,1970/01/01 00:00:00+00,ABREUI,2016/12/27 12:02:25+00
-8929943.736,2977766.698,36,1.31141E+11,4171,Orchard Villa Elementary,3, ,5720 NW 13TH AVE, ,Miami,33142,305-754-0607,E,PK-5,723,394,C,25.82778,-80.21905,913048.7508,543859.0394,,1970/01/01 00:00:00+00,ABREUI,2016/12/27 12:11:35+00
-8930070.635,2975493.382,417,1.3122E+11,8012,Pace Center for Girls,, ,1400 NW 36th St, ,Miami-Dade,33142,786-254-2460,O,12-Jun,0,37,AC,25.8094,-80.22019,912713.3752,537175.1873,ABREUI,2016/12/22 16:49:18+00,ABREUI,2016/12/22 16:52:07+00
-8940769.376,2985517.18,38,4.2026E+11,4241,Palm Lakes Elementary,8, ,7450 W 16TH AVE, ,Hialeah,33014,305-823-6970,E,PK-5,968,688,N,25.89043,-80.3163,880940.9195,566452.7794,,1970/01/01 00:00:00+00,ABREUI,2016/12/27 12:14:15+00
-8936843.632,2984227.551,39,4.2131E+11,4261,Palm Springs Elementary,8, ,6304 E 1ST AVE, ,Hialeah,33013,305-822-0911,E,PK-5,970,604,N,25.88001,-80.28103,892555.915,562726.47,,1970/01/01 00:00:00+00,ABREUI,2016/12/27 12:22:10+00
-8939535.24,2983462.365,161,4.2036E+11,6681,Palm Springs Middle,4, ,1025 W 56TH ST, ,Hialeah,33012,305-821-2460,M,8-Jun,1395,1014,N,25.87382,-80.30521,884617.7484,560435.7738,,1970/01/01 00:00:00+00,ABREUI,2016/12/27 12:23:05+00
-8942736.565,2990987.295,40,3.0201E+12,4281,Palm Springs North Elementary,8, ,17615 NW 82ND AVE, ,Miami-Dade,33015,305-821-4631,E,PK-5,1017,1032,N,25.93463,-80.33397,875049.4574,582487.5888,,1970/01/01 00:00:00+00,ABREUI,2016/12/27 12:24:03+00
-8942736.565,2990987.295,41,3.0201E+12,4281,Palm Springs North Elementary PLC-X,8, ,17615 NW 82ND AVE, ,Miami-Dade,33015,305-817-8910,PLC,PK,0,0,N,25.93463,-80.33397,875049.4574,582487.5888,,1970/01/01 00:00:00+00,ABREUI,2016/12/27 12:24:18+00
-8940497.588,2956405.024,37,3.05014E+12,4221,Palmetto Elementary,10, ,12401 SW 74TH AVE, ,Pinecrest,33156,305-238-4306,E,PK-5,682,573,S,25.65493,-80.31385,882189.3309,480860.4422,,1970/01/01 00:00:00+00,ABREUI,2016/12/27 12:33:25+00
-8940358.039,2956084.904,162,3.05014E+12,6701,Palmetto Middle,7, ,7351 SW 128TH ST, ,Pinecrest,33156,305-238-3911,M,8-Jun,1282,1066,S,25.65233,-80.3126,882607.18,479920.4301,,1970/01/01 00:00:00+00,ABREUI,2016/12/27 12:34:06+00
-8931657.722,2991100.407,42,3.4211E+12,4301,Parkview Elementary,5, ,17631 NW 20TH AVE, ,Miami Gardens,33056,305-625-1591,E,PK-5,436,312,N,25.93554,-80.23445,907755.4998,582998.4374,,1970/01/01 00:00:00+00,,1970/01/01 00:00:00+00
-8932245.421,2990964.898,163,3.4211E+12,8901,Parkway Educational Complex,, MLTC,2349 NW 175TH ST, ,Miami Gardens,33056,305-624-9613,O,8,0,0,N,25.93445,-80.23973,906022.7503,582590.4372,,1970/01/01 00:00:00+00,,1970/01/01 00:00:00+00
-8930479.297,2992324.801,43,3.42102E+12,4341,Parkway Elementary,5, ,1320 NW 188TH ST, ,Miami Gardens,33169,305-653-0066,E,PK-5,540,336,N,25.94543,-80.22386,911213.2504,586613.9371,,1970/01/01 00:00:00+00,,1970/01/01 00:00:00+00
-8928203.177,2973889.543,409,1.31251E+11,1441,Paul Laurence Dunbar K-8 Center,3, ,505 NW 20TH ST, ,Miami,33127,305-573-2344,E,PK-7,788,356,C,25.79642,-80.20342,918261.0621,532493.6877,,1970/01/01 00:00:00+00,,1970/01/01 00:00:00+00
-8948758.42,2970512.974,219,3.04901E+12,6041,Paul W. Bell Middle,6, ,11800 NW 2ND ST, ,Miami-Dade,33182,305-220-2075,M,8-Jun,1007,506,S,25.76911,-80.38806,857551.5363,522241.7002,,1970/01/01 00:00:00+00,ABREUI,2016/11/10 12:11:18+00
-8927619.712,2973532.139,249,1.31361E+11,5931,Phillis Wheatley Elementary,3, ,1801 NW 1ST PL, ,Miami,33136,305-573-2638,E,PK-5,620,254,C,25.79353,-80.19817,919992.0473,531453.4826,,1970/01/01 00:00:00+00,ABREUI,2016/12/28 10:07:11+00
-8925666.355,2981135.704,132,1.32071E+11,3431,Phyllis Ruth Miller Elementary,6, ,840 NE 87TH ST, ,Miami,33138,305-756-3800,E,PK-5,731,592,C,25.85502,-80.18063,925626.6373,553836.1594,,1970/01/01 00:00:00+00,ABREUI,2016/12/28 10:07:53+00
-8946766.277,2951330.093,48,3.0503E+12,4441,Pine Lake Elementary,5, ,16700 SW 109TH AVE, ,Miami-Dade,33157,305-233-7018,E,PK-5,638,410,S,25.61382,-80.37017,863710.0282,465829.748,,1970/01/01 00:00:00+00,ABREUI,2016/12/28 10:09:11+00
-8947964.62,2945231.929,49,3.06018E+12,4461,Pine Villa Elementary,5, ,21799 SW 117TH CT, ,Miami-Dade,33170,305-258-5366,E,PK-5,834,271,S,25.56442,-80.38094,860246.4857,447855.9442,,1970/01/01 00:00:00+00,ABREUI,2016/12/13 11:25:38+00
-8937263.229,2959031.667,47,3.05001E+12,4421,Pinecrest Elementary,10, ,10250 SW 57TH AVE, ,Pinecrest,33156,305-667-5579,E,PK-5,1110,979,S,25.67619,-80.2848,891718.7305,488640.947,,1970/01/01 00:00:00+00,ABREUI,2016/12/28 10:12:56+00
-8931705.256,2978784.55,51,3.03115E+12,4501,Poinciana Park Elementary,4, ,6745 NW 23RD AVE, ,Miami-Dade,33147,305-691-5640,E,PK-5,796,339,C,25.83601,-80.23487,907826.0966,546819.7283,,1970/01/01 00:00:00+00,ABREUI,2016/12/28 10:17:28+00
-8935832.629,2964002.905,164,3.4129E+11,6741,Ponce de Leon Middle,5, ,5801 AUGUSTO ST, ,Coral Gables,33146,305-661-1611,M,8-Jun,1264,1206,C,25.71643,-80.27195,895870.8651,503289.9836,,1970/01/01 00:00:00+00,ABREUI,2016/12/28 10:18:04+00
-8943913.055,2964057.739,300,3.04021E+12,9013,Pre-K Intervention,,FDLRS - South,5555 SW 93RD AVE, ,Miami-Dade,33165,305-271-5701,SPC,PK,0,356,AC,25.71688,-80.34454,871970.5845,503326.0709,,1970/01/01 00:00:00+00,ABREUI,2017/01/04 09:47:19+00
-8943913.055,2964057.739,288,3.04021E+12,9614,Pre-K SPED,,FDLRS - South,5555 SW 93RD AVE, ,Miami-Dade,33165,305-271-5701,SPC,PK,0,204, ,25.71688,-80.34454,871970.5845,503326.0709,,1970/01/01 00:00:00+00,ABREUI,2017/01/04 09:47:36+00
-8931371.501,2988513.064,401,3.42115E+12,4541,Rainbow Park Elementary,4, ,15355 NW 19TH AVE, ,Miami Gardens,33054,305-688-4631,E,PK-5,560,399,N,25.91464,-80.23187,908645.0411,575405.5385,,1970/01/01 00:00:00+00,ABREUI,2016/12/28 10:52:27+00
-8956008.145,2942113.011,402,3.0692E+12,4581,Redland Elementary,6, ,24501 SW 162ND AVE, ,Miami-Dade,33031,305-247-8141,E,PK-5,903,831,S,25.53914,-80.4532,836464.1254,438564.4275,,1970/01/01 00:00:00+00,ABREUI,2016/12/28 10:54:43+00
-8955885.226,2941815.074,166,3.0692E+12,6761,Redland Middle,3, ,16001 SW 248TH ST, ,Miami-Dade,33031,305-247-6112,M,8-Jun,1245,494,S,25.53672,-80.45208,836831.833,437688.2399,,1970/01/01 00:00:00+00,ABREUI,2016/12/28 10:55:46+00
-8960268.513,2935231.267,403,1.07812E+12,4611,Redondo Elementary,6, ,18480 SW 304TH ST, ,Homestead,33030,305-247-5943,E,PK-5,789,614,S,25.48335,-80.49146,823922.3697,418237.1336,,1970/01/01 00:00:00+00,ABREUI,2016/12/28 11:00:20+00
-8932788.363,2985264.834,322,3.02128E+12,9251,Region Maintenance Center 1 & 2,,Main Center,12525 NW 28 AVENUE, ,Miami-Dade,33167,305-995-7900,A, ,0,0, ,25.88839,-80.24461,904516.2657,565840.8004,,1970/01/01 00:00:00+00,ABREUI,2016/12/28 11:22:37+00
-8932812.876,2980858.623,320,3.03109E+12,9271,Region Maintenance Center 3,, ,2780 NW 87 STREET, ,Miami-Dade,33147,305-835-1000,A, ,0,0, ,25.85278,-80.24482,904518.3204,552895.4953,,1970/01/01 00:00:00+00,ABREUI,2016/12/28 11:29:13+00
-8932599.129,2975950.301,319,3.03121E+12,9281,Region Maintenance Center 4,, ,2925 NW 41 STREET, ,Miami-Dade,33142,305-995-4300,A, ,0,0, ,25.81309,-80.24291,905232.8621,538474.5812,,1970/01/01 00:00:00+00,,1970/01/01 00:00:00+00
-8948059.747,2952808.742,277,3.0503E+12,9264,Region Maintenance Center 5,, ,15301 SW 117 AVENUE, ,Miami-Dade,33177,305-235-4285,A, ,0,0, ,25.6258,-80.38179,859860.7761,470164.7532,,1970/01/01 00:00:00+00,ABREUI,2016/12/28 11:42:03+00
-8955624.566,2941874.93,274,3.0692E+12,9261,Region Maintenance Center 6,, ,24600 SW 159th Ave, ,Miami-Dade,33031,305-248-3016,A, ,0,0, ,25.53721,-80.44975,837603.1981,437867.7604,,1970/01/01 00:00:00+00,ABREUI,2016/12/29 08:44:01+00
-8945589.968,2953288.107,168,3.0502E+12,6781,Richmond Heights Middle,3, ,15015 SW 103RD AVE, ,Miami-Dade,33176,305-238-2316,M,8-Jun,960,628,S,25.62968,-80.3596,867164.2902,471610.609,,1970/01/01 00:00:00+00,ABREUI,2016/12/28 11:53:38+00
-8929343.596,2970795.279,405,1.4102E+11,4681,Riverside Elementary,4, ,1190 SW 2ND ST, ,Miami,33130,305-547-1520,E,PK-5,856,1224,C,25.7714,-80.21366,914944.5675,523376.2768,,1970/01/01 00:00:00+00,ABREUI,2016/12/28 11:55:19+00
-8945821.867,2964859.868,414,3.0402E+12,6801,Riviera Middle,5, ,10301 SW 48TH ST, ,Miami-Dade,33165,305-226-4286,M,8-Jun,1035,590,S,25.72337,-80.36169,866313.5362,505657.8722,,1970/01/01 00:00:00+00,ABREUI,2016/12/29 08:54:12+00
-8948981.514,2949518.357,298,3.05936E+12,8911,Robert Morgan Educational Center and Technical College,, ,18180 SW 122ND AVE, ,Miami-Dade,33177,305-253-9920,O, ,0,0,S,25.59915,-80.39007,857177.0096,460464.8771,,1970/01/01 00:00:00+00,ABREUI,2016/12/28 11:57:53+00
-8948981.514,2949518.357,92,3.05936E+12,7371,Robert Morgan Educational Center Senior High,6, ,18180 SW 122ND AVE, ,Miami-Dade,33177,305-253-9920,S,12-Sep,1935,2306,S,25.59915,-80.39007,857177.0096,460464.8771,,1970/01/01 00:00:00+00,ABREUI,2016/12/28 11:58:00+00
-8932155.852,2994748.237,295,3.41134E+12,8151,Robert Renick Education Center,1, ,2201 NW 207TH ST, ,Miami Gardens,33056,305-624-1171,SPC,K-12,0,104,N,25.96501,-80.23892,906222.6186,593699.6141,,1970/01/01 00:00:00+00,ABREUI,2016/12/28 11:58:55+00
-8945174.277,2949890.102,134,3.05032E+12,3541,Robert Russa Moton Elementary,6, ,18050 HOMESTEAD AVE, ,Miami-Dade,33157,305-235-3612,E,PK-5,715,373,S,25.60216,-80.35587,868443.2862,461612.7445,,1970/01/01 00:00:00+00,ABREUI,2016/12/28 12:00:10+00
-8944116.952,2967414.193,343,3.04016E+12,4721,Rockway Elementary,5, ,2790 SW 93RD CT, ,Miami-Dade,33165,305-221-1192,E,PK-5,554,397,C,25.74404,-80.34637,871318.6298,513195.2608,,1970/01/01 00:00:00+00,ABREUI,2016/12/28 12:06:27+00
-8944262.752,2967220.472,272,3.04016E+12,6821,Rockway Middle,6, ,9393 SW 29TH TER, ,Miami-Dade,33165,305-221-8212,M,8-Jun,1344,1006,C,25.74247,-80.34768,870890.316,512623.4041,,1970/01/01 00:00:00+00,ABREUI,2016/12/28 12:06:46+00
-8947447.932,2976777.942,427,3.53019E+12,7241,Ronald Reagan South Campus (3rd Floor ),7,Former Doral Middle,5005 NW 112TH AVE, ,Doral,33178,305-805-1900,S,9,2494,2198,C,25.81978,-80.37629,861338.5807,540676.8769,,1970/01/01 00:00:00+00,T0140179,2018/10/30 13:36:48+00
-8946909.068,2980835.142,180,3.53007E+12,7241,Ronald W. Reagan/Doral Senior High,7, ,8600 NW 107TH AVE, ,Doral,33178,305-805-1900,S,12-Sep,2494,2198,C,25.85259,-80.37145,862873.9827,552607.2081,,1970/01/01 00:00:00+00,ABREUI,2016/12/28 12:09:09+00
-8950700.529,2964727.462,344,3.04923E+12,4741,Royal Green Elementary,9, ,13047 SW 47TH ST, ,Miami-Dade,33175,305-221-4452,E,PK-5,744,544,S,25.7223,-80.40552,851886.6421,505201.0369,,1970/01/01 00:00:00+00,ABREUI,2016/12/28 12:10:12+00
-8947490.543,2965583.389,345,3.04019E+12,4761,Royal Palm Elementary,10, ,4200 SW 112TH CT, ,Miami-Dade,33165,305-221-7961,E,PK-5,576,529,S,25.72923,-80.37667,861368.3665,507762.4126,,1970/01/01 00:00:00+00,ABREUI,2016/12/28 12:11:56+00
-8945006.725,2970813.549,338,3.04005E+12,6121,Ruben Dario Middle,4, ,350 NW 97TH AVE, ,Miami-Dade,33172,305-226-0179,M,8-Jun,1034,601,C,25.77154,-80.35436,868638.616,523178.3934,,1970/01/01 00:00:00+00,ABREUI,2016/12/28 12:15:53+00
-8920265.515,2984738.551,237,1.32227E+12,241,Ruth K. Broad/Bay Harbor K-8 Center,10, ,1155 93RD ST, ,Bay Harbor Islands,33154,305-865-7912,E,PK-8,990,1303,N,25.88414,-80.13211,941512.5348,564523.6005,,1970/01/01 00:00:00+00,ABREUI,2017/01/09 09:42:09+00
-8947070.761,2961764.765,296,3.04031E+12,8181,Ruth Owens Kruse Educational Center,1, ,11001 SW 76TH ST, ,Miami-Dade,33173,305-270-8699,SPC,K-12,0,165,S,25.69832,-80.3729,862663.159,496535.2413,,1970/01/01 00:00:00+00,ABREUI,2016/12/13 13:14:37+00
-8929220.774,2974904.764,347,1.3126E+11,4841,Santa Clara Elementary,3, ,1051 NW 29TH TER, ,Miami,33127,305-635-1417,E,PK-5,713,559,C,25.80463,-80.21255,915235.4376,535459.9377,,1970/01/01 00:00:00+00,,1970/01/01 00:00:00+00
-8926655.478,2973067.014,301,1.3231E+11,9015,School Board Adm - Annex,, ,1500 Biscayne Blvd, ,Miami,33132,305-995-1106,A, ,0,0, ,25.78977,-80.18951,922850.5848,530103.5472,,1970/01/01 00:00:00+00,ABREUI,2016/12/27 10:12:09+00
-8926824.146,2972976.836,302,1.31361E+11,9015,School Board Adm - Main Building,, ,1450 NE 2ND AVE, ,Miami,33132,305-995-1106,A, ,0,0, ,25.78904,-80.19102,922353.6405,529835.3682,,1970/01/01 00:00:00+00,,1970/01/01 00:00:00+00
-8926840.119,2973127.719,309,1.31361E+11,9015,School Board Adm -Garage,, ,115 NE 15 ST, ,Miami,33132,305-995-4576,A, ,0,0, ,25.79026,-80.19117,922303.702,530278.6553,,1970/01/01 00:00:00+00,ABREUI,2016/12/28 12:20:33+00
-8958373.238,2934104.592,113,1.07918E+12,7551,School For Advanced Studies Homestead,10,Homestead,500 COLLEGE TER, ,Homestead,33030,305-237-5062,S,12-Nov,0,113,S,25.47421,-80.47443,829551.8937,414938.283,,1970/01/01 00:00:00+00,ABREUI,2016/12/28 12:21:18+00
-8932905.92,2983971.074,270,3.02133E+12,7061,School For Advanced Studies North,10,Room 111,11380 NW 27TH AVE,Room 1111 ,Miami-Dade,33167,305-237-1089,S,12-Nov,0,104,S,25.87793,-80.24566,904190.9107,562038.3003,,1970/01/01 00:00:00+00,ABREUI,2017/01/11 14:08:12+00
-8947208.626,2958903.683,106,3.05006E+12,7091,School For Advanced Studies South,10,South MDC-Kendall,11011 SW 104TH ST, ,Miami-Dade,33176,305-237-0510,S,12-Nov,0,224,S,25.67516,-80.37414,862295.1961,488115.131,,1970/01/01 00:00:00+00,ABREUI,2017/01/05 08:50:35+00
-8948368.746,2975362.017,415,3.5303E+12,7261,School For Advanced Studies West,10,West Campus,3800 NW 115th Ave, ,Doral,33178,305-237-8000,A,  ,0,0, ,25.80833,-80.38456,858636.9374,536502.375,ABREUI,2016/06/15 14:31:41+00,ABREUI,2016/12/28 12:35:50+00
-8927067.137,2971411.438,264,1.01091E+11,7041,School For Advanced Studies Wolfson,10,Wolfson,25 NE 2ND ST, ,Miami,33132,305-237-7270,S,12-Nov,0,112,S,25.77638,-80.19321,921663.5625,525228.625,,1970/01/01 00:00:00+00,ABREUI,2016/12/28 12:36:40+00
-8930049.467,2990945.405,348,3.42111E+12,4881,Scott Lake Elementary,4, ,1160 NW 175TH ST, ,Miami Gardens,33169,305-624-1443,E,PK-5,848,452,N,25.93429,-80.22,912506.2498,582571.3119,,1970/01/01 00:00:00+00,,1970/01/01 00:00:00+00
-8941556.8,2970528.621,349,3.04003E+12,4921,Seminole Elementary,8, ,121 SW 78TH PL, ,Miami-Dade,33144,305-261-7071,E,PK-5,850,560,C,25.76924,-80.32337,878842.0149,522391.7938,,1970/01/01 00:00:00+00,ABREUI,2016/12/28 12:38:15+00
-8927686.47,2976923.871,350,1.3124E+11,4961,Shadowlawn Elementary,4, ,149 NW 49TH ST, ,Miami,33127,305-758-3673,E,PK-5,420,239,C,25.82096,-80.19877,919734.0221,541422.076,,1970/01/01 00:00:00+00,ABREUI,2016/12/28 12:38:56+00
-8930960.031,2969731.27,351,1.411E+11,5001,Shenandoah Elementary,5, ,1023 SW 21ST AVE, ,Miami,33135,305-643-4433,E,PK-5,968,969,C,25.76279,-80.22818,910184.1021,520219.4031,,1970/01/01 00:00:00+00,ABREUI,2016/12/28 12:39:40+00
-8930829.64,2968673.007,273,1.411E+11,6841,Shenandoah Middle,4, ,1950 SW 19TH ST, ,Miami,33145,305-856-8282,M,8-Jun,1193,1180,C,25.75423,-80.227,910587.8597,517109.7145,,1970/01/01 00:00:00+00,ABREUI,2016/12/28 12:40:56+00
-8931776.677,2967341.664,292,1.4115E+11,5041,Silver Bluff Elementary,7, ,2609 SW 25TH AVE, ,Miami,33133,305-856-5197,E,PK-5,518,544,C,25.74345,-80.23552,907810.3611,513178.1121,,1970/01/01 00:00:00+00,ABREUI,2016/12/28 12:41:33+00
-8945398.517,2963075.53,64,3.04029E+12,5121,Snapper Creek Elementary,7, ,10151 SW 64TH ST, ,Miami-Dade,33173,305-271-2111,E,PK-5,686,471,S,25.70893,-80.35788,867591.1249,500415.143,,1970/01/01 00:00:00+00,ABREUI,2016/12/28 12:45:58+00
-8961929.952,2936793.926,352,3.07802E+12,5003,South Dade Middle,4, ,29100 SW 194TH AVE, ,Miami-Dade,33030,305-224-5200,M,8-Apr,1477,1122,S,25.49602,-80.50638,818981.8285,422823.817,,1970/01/01 00:00:00+00,ABREUI,2016/12/28 12:47:31+00
-8956820.382,2937453.739,121,3.07905E+12,7701,South Dade Senior High,3, ,28401 SW 167TH AVE, ,Miami-Dade,33030,305-247-4244,S,12-Sep,3302,3102,S,25.50137,-80.46048,834113.9586,424826.9327,,1970/01/01 00:00:00+00,ABREUI,2016/12/28 12:48:34+00
-8954246.515,2937760.238,299,3.07904E+12,8981,South Dade Skill Center,,Skills Center Campus,28300 SW 152ND AVE, ,Miami-Dade,33033,305-247-7839,O, ,0,0,AC,25.50385,-80.43736,841736.3743,425761.6869,,1970/01/01 00:00:00+00,,1970/01/01 00:00:00+00
-8958465.888,2934507.937,95,1.07907E+12,7702,South Dade Technical College,,Main Campus,109 NE 8TH ST, ,Homestead,33030,305-248-5723,O, ,0,0,AC,25.47748,-80.47527,829272.633,416126.0099,,1970/01/01 00:00:00+00,ABREUI,2016/12/28 12:49:40+00
-8936352.675,2977638.183,67,4.3118E+11,5201,South Hialeah Elementary,7, ,265 E 5TH ST, ,Hialeah,33010,305-885-4556,E,PK-5,1274,1000,C,25.82674,-80.27662,894112.6343,543373.0251,,1970/01/01 00:00:00+00,ABREUI,2016/12/28 12:51:06+00
-8948927.245,2948429.398,69,3.06901E+12,5281,South Miami Heights Elementary,7, ,12231 SW 190TH TER, ,Miami-Dade,33177,305-238-6610,E,PK-5,732,675,S,25.59033,-80.38958,857352.4349,457259.1414,,1970/01/01 00:00:00+00,ABREUI,2016/12/28 12:51:47+00
-8939614.06,2963698.925,68,9.4026E+11,5241,South Miami K-8 Center,8, ,6800 SW 60TH ST, ,South Miami,33143,305-667-8847,E,PK-8,986,852,C,25.71397,-80.30592,884691.1982,502335.5521,,1970/01/01 00:00:00+00,ABREUI,2016/12/28 12:52:58+00
-8939345.645,2963757.188,171,9.4026E+11,6881,South Miami Middle,8, ,6750 SW 60TH ST, ,South Miami,33143,305-661-3481,M,8-Jun,800,957,C,25.71445,-80.30351,885484.2017,502511.1243,,1970/01/01 00:00:00+00,ABREUI,2016/12/28 12:53:19+00
-8939544.374,2964535.316,96,3.04023E+12,7721,South Miami Senior High,3, ,6856 SW 53RD ST, ,Miami-Dade,33155,305-666-5871,S,12-Sep,2454,2234,C,25.72074,-80.30529,884884.366,504796.9534,,1970/01/01 00:00:00+00,ABREUI,2016/12/28 12:54:34+00
-8921060.521,2971023.936,61,2.4203E+11,5091,South Pointe Elementary,7, ,1050 4TH ST, ,Miami Beach,33139,305-531-5437,E,PK-5,452,541,N,25.77324,-80.13925,939428.2284,524201.6475,,1970/01/01 00:00:00+00,ABREUI,2016/12/28 13:01:15+00
-8948981.514,2949518.357,400,3.05936E+12,9575,South Region Office,, ,18180 SW 122ND AVE, ,Miami-Dade,33177,305-252-3041,A, ,0,0, ,25.59915,-80.39007,857177.0096,460464.8771,,1970/01/01 00:00:00+00,ABREUI,2016/12/28 11:58:25+00
-8941580.793,2960223.698,399,3.05003E+12,9575,South Region Office Annex,, ,9040 SW 79TH AVE, ,Miami-Dade,33156,305-595-7022,A, ,0,0, ,25.68584,-80.32359,878926.4227,492081.2335,,1970/01/01 00:00:00+00,ABREUI,2016/12/28 13:02:25+00
-8927205.071,2969619.486,70,1.02081E+11,5321,Southside Elementary,8, ,45 SW 13TH ST, ,Miami,33130,305-371-3311,E,PK-5,884,747,C,25.76188,-80.19444,921288.0003,519957.1245,,1970/01/01 00:00:00+00,,1970/01/01 00:00:00+00
-8943202.098,2964696,99,3.04021E+12,7742,Southwest Miami Adult Center,, ,8855 SW 50TH TER, ,Miami-Dade,33165,305-274-0181,O, ,0,0, ,25.72204,-80.33815,874063.9528,505214.0204,,1970/01/01 00:00:00+00,ABREUI,2016/12/28 13:05:12+00
-8943202.098,2964696,98,3.04021E+12,7741,Southwest Miami Senior High,5, ,8855 SW 50TH TER, ,Miami-Dade,33165,305-274-0181,S,12-Sep,2851,2985,S,25.72204,-80.33815,874063.9528,505214.0204,,1970/01/01 00:00:00+00,ABREUI,2016/12/28 13:05:22+00
-8941412.397,2952033.503,170,3.05027E+12,6861,Southwood Middle,7, ,16301 SW 80TH AVE, ,Palmetto Bay,33157,305-251-5361,M,8-Jun,1690,1525,S,25.61952,-80.32207,879548.0924,467978.7974,,1970/01/01 00:00:00+00,ABREUI,2016/12/28 13:06:00+00
-8942484.753,2992770.705,82,3.02003E+12,2191,Spanish Lake Elementary,7, ,7940 NW 194TH St, ,Miami-Dade,33015,305-816-0300,E,PK-5,1637,1629,N,25.94904,-80.3317,875766.158,587727.632,,1970/01/01 00:00:00+00,ABREUI,2016/12/28 13:06:48+00
-8939299.485,2978440.556,71,5.3013E+11,5361,Springview Elementary,9, ,1122 BLUEBIRD AVE, ,Miami Springs,33166,305-885-6466,E,PK-5,510,434,C,25.83323,-80.30309,885392.3875,545684.0493,,1970/01/01 00:00:00+00,ABREUI,2016/12/28 13:07:31+00
-8939914.164,2970474.284,328,1.4002E+11,9181,Stores And Distribution Complex,, ,7001 SW 4 STREET, ,Miami,33144,786-275-0602,A, ,0,0, ,25.7688,-80.30861,883699.126,522257.2305,,1970/01/01 00:00:00+00,,1970/01/01 00:00:00+00
-8935898.527,2975706.83,304,5.312E+11,9028,Student Services & Attendance,, ,489 EAST DR, ,Miami Springs,33166,305-883-5323,A, ,0,0, ,25.81112,-80.27255,895486.0221,537703.941,,1970/01/01 00:00:00+00,ABREUI,2016/11/15 13:53:22+00
-8936245.499,2962513.384,355,3.04131E+12,5401,Sunset Elementary,10, ,5120 SW 72ND ST, ,Miami-Dade,33143,305-661-8527,E,PK-5,1258,1155,C,25.70438,-80.27566,894673.7495,498901.4447,,1970/01/01 00:00:00+00,ABREUI,2016/12/28 13:14:01+00
-8945411.556,2960911.268,356,3.04032E+12,5421,Sunset Park Elementary,7, ,10235 SW 84TH ST, ,Miami-Dade,33173,305-279-3222,E,PK-5,704,623,S,25.69141,-80.358,867583.4974,494047.7297,,1970/01/01 00:00:00+00,ABREUI,2016/12/28 13:14:37+00
-8946452.726,2970050.059,357,2.54005E+12,5431,Sweetwater Elementary,7, ,10655 SW 4TH ST, ,Sweetwater,33174,305-559-1101,E,PK-5,971,676,C,25.76537,-80.36735,864374.5564,520912.7563,,1970/01/01 00:00:00+00,ABREUI,2016/12/28 13:15:43+00
-8938119.521,2969029.348,358,1.54012E+12,5441,Sylvania Heights Elementary,8, ,5901 SW 16TH ST, ,West Miami,33155,305-266-3511,E,PK-5,826,460,C,25.75711,-80.29249,889027.6265,518036.5835,,1970/01/01 00:00:00+00,ABREUI,2016/12/28 13:23:29+00
-8932467.415,2978385.794,4,3.03116E+12,8016,TAP - Teenage Parent Program,, ,6300 NW 27 AVE,ROOM 92,Miami-Dade,33142,305-636-7356,S,P,0,93,AC,25.83278,-80.24172,905580.8537,545634.8307,,1970/01/01 00:00:00+00,ABREUI,2016/12/29 07:45:56+00
-8946776.577,2961059.92,262,3.04031E+12,7029,Terra Environmental Research Institute Senior High,10, ,11005 SW 84TH ST, ,Miami-Dade,33173,305-412-5800,S,12-Sep,1647,1836,S,25.69261,-80.37026,863543.2749,494465.6602,,1970/01/01 00:00:00+00,ABREUI,2016/12/29 07:57:34+00
-8928924.098,2978717.01,283,1.3114E+11,2531,Thena C. Crowder Early Childhood Diagnostic SP ED,, ,757 NW 66TH ST, ,Miami,33150,305-836-0012,SPC,PK,268,16,AC,25.83546,-80.20989,916044.9787,546669.8525,,1970/01/01 00:00:00+00,ABREUI,2016/12/29 08:09:31+00
-8928727.065,2987925.555,19,3.02124E+12,6281,Thomas Jefferson Middle,3, ,525 NW 147TH ST, ,Miami-Dade,33168,305-681-7481,M,8-Jun,594,356,N,25.90989,-80.20812,916464.0001,573726.5622,,1970/01/01 00:00:00+00,,1970/01/01 00:00:00+00
-8927142.794,2977974.665,175,1.31131E+11,3051,Toussaint L'ouverture Elementary,4, ,120 NE 59TH ST, ,Miami,33137,305-758-2600,E,PK-5,744,439,C,25.82946,-80.19389,921321.7403,544520.1819,,1970/01/01 00:00:00+00,ABREUI,2016/12/29 08:10:55+00
-8947967.265,2952630.782,279,3.0503E+12,9230,Transportation Center Administrative Offices,,Main Office,15401 SW 117 AVENUE, ,Miami-Dade,33177,305-234-3365,A, ,0,0, ,25.62436,-80.38095,860136.9648,469642.154,,1970/01/01 00:00:00+00,ABREUI,2016/12/29 08:19:36+00
-8939990.831,2970288.325,330,1.4002E+11,9231,Transportation Center Central East,,Central East,7011 SW 4 STREET, ,Miami,33144,305-227-1995,A, ,0,0, ,25.76729,-80.3093,883475.3331,521709.2568,,1970/01/01 00:00:00+00,ABREUI,2016/12/29 08:31:32+00
-8952137.666,2971025.084,314,3.03953E+12,9237,Transportation Center Central West,,Central West,13775 NW 6 STREET, ,Miami-Dade,33182,305-227-1995,A, ,0,0, ,25.77325,-80.41842,847554.6165,523702.1866,,1970/01/01 00:00:00+00,ABREUI,2016/12/29 08:31:34+00
-8932709.955,2984981.021,323,3.02128E+12,9239,Transportation Center John H Schee,,John H Schee,2755 NW 122 STREET, ,Miami-Dade,33167,305-681-1576,A, ,0,0, ,25.8861,-80.2439,904752.6451,565008.4417,,1970/01/01 00:00:00+00,ABREUI,2016/12/29 08:38:10+00
-8935482.607,2989189.213,317,3.42117E+12,9232,Transportation Center North,,North,16150 NW 42 AVENUE, ,Miami Gardens,33054,305-625-9086,A, ,0,0, ,25.9201,-80.2688,896494.6744,577321.7771,,1970/01/01 00:00:00+00,ABREUI,2016/12/29 08:18:40+00
-8932360.524,2977940.532,324,3.03115E+12,9234,Transportation Center Northeast,,Northeast,5901 NW 27 AVENUE, ,Miami-Dade,33142,305-633-6909 ,A, ,0,0, ,25.82918,-80.24076,905904.2567,544328.1002,,1970/01/01 00:00:00+00,ABREUI,2016/12/29 08:32:23+00
-8943108.098,2982151.232,313,2.23003E+12,9236,Transportation Center Northwest,,Northwest,9900 NW South River Drive, ,Medley,33166,305-887-2383,A, ,0,0, ,25.86323,-80.3373,874083.7086,556529.2533,,1970/01/01 00:00:00+00,ABREUI,2016/12/29 08:32:24+00
-8958856.706,2930076.266,275,1.67825E+12,9233,Transportation Center South,,South,660 SW 3 AVENUE, ,Florida City,33034,305-248-3380,A, ,0,0, ,25.44154,-80.47878,828165.5205,403057.9151,,1970/01/01 00:00:00+00,ABREUI,2016/12/29 08:18:51+00
-8947941.526,2952569.103,278,3.0503E+12,9235,Transportation Center Southwest,,Southwest,15501 SW 117 AVENUE, ,Miami-Dade,33177,305-234-0046,A, ,0,0, ,25.62386,-80.38072,860213.9983,469460.9393,,1970/01/01 00:00:00+00,ABREUI,2016/12/29 08:18:55+00
-8947872.949,2952234.084,276,3.0503E+12,9292,Transportation Center Vehicle Maintenance Office,,Center,11601 SW 160 STREET, ,Miami-Dade,33177,305-234-0849,A, ,0,0, ,25.62115,-80.38011,860421.5989,468475.636,,1970/01/01 00:00:00+00,ABREUI,2016/12/29 08:37:47+00
-8955625.447,2941862.798,331,3.0692E+12,9292,Transportation Redland Vehicle Maintenance,,Redland,24600 SW 159th Ave, ,Miami-Dade,33031,(305) 248-4925,A, ,0,0, ,25.53711,-80.44975,837600.7367,437832.0085,,1970/01/01 00:00:00+00,ABREUI,2016/12/29 08:44:19+00
-8921887.827,2980095.551,359,2.33209E+12,5481,Treasure Island Elementary,7, ,7540 E Treasure Dr, ,North Bay Village,33141,305-865-3141,E,PK-5,915,508,N,25.84661,-80.14668,936809.4904,550850.8387,,1970/01/01 00:00:00+00,ABREUI,2016/12/29 08:47:52+00
-8945976.374,2965103.035,222,3.0402E+12,5521,Tropical Elementary,6, ,4545 SW 104TH AVE, ,Miami-Dade,33165,305-221-0284,E,PK-5,802,324,S,25.72534,-80.36307,865853.1299,506370.917,,1970/01/01 00:00:00+00,ABREUI,2016/12/29 08:49:41+00
-8938358.889,2984616.217,224,4.2036E+11,5601,Twin Lakes Elementary,7, ,6735 W 5TH PL, ,Hialeah,33012,305-822-0770,E,PK-5,668,475,N,25.88315,-80.29464,888074.2392,563843.9249,,1970/01/01 00:00:00+00,ABREUI,2016/12/29 08:54:48+00
-8929577.522,2982953.854,244,3.02135E+12,401,Van E. Blanton Elementary,4, ,10327 NW 11TH AVE, ,Miami-Dade,33150,305-696-9241,E,PK-5,616,535,C,25.86971,-80.21576,914039.9393,559107.5183,,1970/01/01 00:00:00+00,ABREUI,2016/12/29 08:55:20+00
-8949231.868,2966581.807,225,3.04913E+12,5641,Village Green Elementary,7, ,12265 SW 34TH ST, ,Miami-Dade,33175,305-226-0441,E,PK-5,470,332,S,25.7373,-80.39231,856205.1276,510674.9103,,1970/01/01 00:00:00+00,ABREUI,2016/12/29 08:55:56+00
-8942452.085,2957051.798,226,3.0501E+12,5671,Vineland K-8 Center,9, ,8455 SW 119TH ST, ,Miami-Dade,33156,305-238-7931,E,PK-8,879,928,S,25.66016,-80.33142,876395.9375,482734.3121,,1970/01/01 00:00:00+00,,1970/01/01 00:00:00+00
-8922781.284,2994841.309,206,3.01233E+12,2441,Virginia A. Boone/Highland Oaks Elementary,7, ,20500 NE 24TH AVE, ,Miami-Dade,33180,305-931-1770,E,PK-5,774,688,N,25.96576,-80.15471,933890.5615,594142.6695,,1970/01/01 00:00:00+00,ABREUI,2016/12/29 09:01:03+00
-8950709.518,2967506.883,172,3.04911E+12,6901,W. R. Thomas Middle,6, ,13001 SW 26TH ST, ,Miami-Dade,33175,305-995-3800,M,8-Jun,899,1198,S,25.74479,-80.40559,851823.2332,513375.6289,,1970/01/01 00:00:00+00,ABREUI,2016/11/15 13:47:32+00
-8924869.159,2985623.102,376,6.2229E+11,561,W.J. Bryan Elementary,3, ,1201 NE 125TH ST, ,North Miami,33161,305-891-0602,E,PK-5,872,718,N,25.89129,-80.17347,927898.8124,567034.1751,,1970/01/01 00:00:00+00,ABREUI,2016/12/29 09:03:30+00
-8949634.874,2968314.998,178,3.04912E+12,3111,Wesley Matthews Elementary,9, ,12345 SW 18TH TER, ,Miami-Dade,33175,305-222-8150,E,PK-5,711,466,S,25.75133,-80.39594,854990.0328,515766.5747,,1970/01/01 00:00:00+00,ABREUI,2016/12/29 09:06:55+00
-8944311.097,2984454.347,204,2.72033E+12,2371,West Hialeah Gardens Elementary,6, ,11990 NW 92ND AVE, ,Hialeah Gardens,33018,305-818-4000,E,PK-5,1241,1255,N,25.88184,-80.34812,870496.4014,563277.5236,,1970/01/01 00:00:00+00,ABREUI,2016/12/29 09:11:57+00
-8960700.649,2932841.523,246,1.07814E+12,5791,West Homestead K-8 Center,4, ,1550 SW 6TH ST, ,Homestead,33030,305-248-0812,E,PK-6,729,764,S,25.46397,-80.49534,822668.472,411188.6725,,1970/01/01 00:00:00+00,ABREUI,2016/12/29 09:12:38+00
-8945104.707,2986647.667,440,4.2021E+11,3001,West Lakes Preparatory Academy,8, ,13835 NW 97th Ave, ,Hialeah,33018,305-826-1989,E,PK-5,626,303,N,25.89957,-80.35524,868120.7493,569708.4668,ABREUI,2018/05/31 09:33:56+00,T0140179,2018/09/27 16:04:33+00
-8940972.567,2967966.399,174,3.04011E+12,6961,West Miami Middle,3, ,7525 SW 24TH ST, ,Miami-Dade,33155,305-261-8383,M,8-Jun,1192,801,C,25.74851,-80.31812,880608.2042,514866.2995,,1970/01/01 00:00:00+00,ABREUI,2016/12/29 09:13:49+00
-8941063.893,2981495.153,266,4.3002E+11,7049,Westland Hialeah Senior High,4, ,4000 W 18TH AVE, ,Hialeah,33012,305-818-3000,S,12-Sep,1749,2055,N,25.85792,-80.31894,880132.3942,554632.5265,,1970/01/01 00:00:00+00,ABREUI,2016/12/29 09:15:03+00
-8942937.147,2948512.586,250,3.06004E+12,5951,Whispering Pines Elementary,8, ,18929 SW 89TH RD, ,Cutler Bay,33157,305-238-7382,E,PK-5,724,612,S,25.591,-80.33577,875086.6424,457589.3141,,1970/01/01 00:00:00+00,ABREUI,2016/12/29 09:16:56+00
-8951997.771,2939132.774,384,3.06934E+12,771,William A. Chapman Elementary,9, ,27190 SW 140TH AVE, ,Miami-Dade,33032,305-245-1055,E,PK-5,702,475,S,25.51498,-80.41716,848381.4497,429834.6599,,1970/01/01 00:00:00+00,ABREUI,2016/12/29 09:17:29+00
-8931073.399,2982752.696,119,3.03103E+12,7602,William H. Turner Technical Adult Education,, ,10151 NW 19TH AVE, ,Miami-Dade,33147,305-691-8324,O, ,0,0, ,25.86809,-80.22919,909624.6853,558490.3663,,1970/01/01 00:00:00+00,ABREUI,2016/12/29 09:23:46+00
-8931083.969,2982639.294,118,3.03103E+12,7601,William H. Turner Technical Arts High School,5, ,10151 NW 19TH AVE, ,Miami-Dade,33147,305-691-8324,S,12-Sep,1833,1478,C,25.86717,-80.2293,909595.416,558157.0142,,1970/01/01 00:00:00+00,ABREUI,2016/12/29 09:24:17+00
-8947843.536,2957905.589,211,3.05007E+12,2891,William Lehman Elementary,10, ,10990 SW 113TH PL, ,Miami-Dade,33176,305-273-2140,E,PK-5,935,635,S,25.66708,-80.37984,860430.4639,485169.2045,,1970/01/01 00:00:00+00,ABREUI,2016/12/29 09:42:22+00
-8950794.908,2961439.092,251,3.04935E+12,5961,Winston Park K-8 Center,8, ,13200 SW 79TH ST, ,Miami-Dade,33183,305-386-7622,E,PK-8,1147,1347,S,25.69568,-80.40637,851650.9959,495526.206,,1970/01/01 00:00:00+00,ABREUI,2016/12/29 09:42:58+00
-8927716.757,2974980.169,269,1.3125E+11,7056,Young Men's Preparatory Academy Senior High,4, ,3001 NW 2ND AVE, ,Miami,33127,305-571-1111,S,12-Jun,486,246,C,25.80524,-80.19904,919679.2978,535708.4136,,1970/01/01 00:00:00+00,ABREUI,2016/12/29 09:43:39+00
-8929377.504,2970916.543,268,1.4102E+11,7055,Young Women's Preparatory Academy,9, ,1150 SW 1ST ST, ,Miami,33130,305-575-1200,S,12-Jun,447,403,C,25.77238,-80.21396,914842.1965,523732.2308,,1970/01/01 00:00:00+00,ABREUI,2016/12/29 09:44:11+00
-8950894.106,2967785.256,280,3.04911E+12,2511,Zora Neale Hurston Elementary,8, ,13137 SW 26TH ST, ,Miami-Dade,33175,305-222-8152,E,PK-5,1039,657,S,25.74704,-80.40726,851273.7359,514191.8273,,1970/01/01 00:00:00+00,ABREUI,2016/12/29 09:44:44+00
